no,obs_code,management,name_K,name_E,watershed,river,address,long,lat
1,1001602,환경부,평창군(송정교),Pyeongchanggun(Songjeonggyo),한강,오대천,강원도 평창군 진부면 하진부리 송정교,128.551111,37.624167
2,1001607,수자원공사,삼척시(번천교),Samcheoksi(Bunchungyo),한강,번천천,강원도 삼척시 하장면 번천리 천375 번천교,129.004167,37.372222
3,1001613,수자원공사,삼척시(광동교),Samcheoksi(Gwangdonggyo),한강,골지천,강원도 삼척시 하장면 하장길 125 광동교,128.9425,37.348333
4,1001615,수자원공사,삼척시(갈밭교),Samcheoksi(Galbatgyo),한강,골지천,강원도 삼척시 하장면 갈전리 산119-1 갈밭교,128.911389,37.373889
5,1001620,환경부,정선군(송계교),Jeongseongun(Songgyegyo),한강,임계천,강원도 정선군 임계면 봉산리 송계교,128.849167,37.494167
6,1001622,환경부,정선군(혈천교),Jeongseongun(Hyulcheongyo),한강,골지천,강원도 정선군 임계면 낙천리 혈천교,128.846944,37.464722
7,1001625,환경부,정선군(송천교),Jeongseongun(Songcheongyo),한강,송천,강원도 정선군 여량면 유천리 송천교,128.718611,37.485556
8,1001626,환경부,정선군(제1여량교),Jeongseongun(Je1yeoryanggyo),한강,골지천,강원도 정선군 여량면 여량리 제1여량교,128.729167,37.473333
9,1001629,환경부,정선군(남평대교),Jeongseongun(Nampyeongdaegyo),한강,골지천,강원도 정선군 북평면 남평리 남평대교,128.653056,37.438889
10,1001630,환경부,정선군(나전교),Jeongseongun(Najeongyo),한강,오대천,강원도 정선군 북평면 북평리 나전교,128.649722,37.438611
11,1001645,환경부,정선군(와평교),Jeongseongun(Wahpyeonggyo),한강,어천,강원도 정선군 정선읍 신월리 와평교,128.684167,37.366111
12,1001649,환경부,정선군(애산교),Jeongseongun(Yaesangyo),한강,어천,강원도 정선군 정선읍 애산리 애산교,128.670833,37.373333
13,1001655,환경부,정선군(정선제1교),Jeongseongun(Jeongseonje1gyo),한강,한강,강원도 정선군 정선읍 봉양리 정선제1교,128.657222,37.378333
14,1001658,환경부,정선군(광하교),Jeongseongun(Gwanghagyo),한강,한강,강원도 정선군 정선읍 광하리 광하교,128.618889,37.369722
15,1001660,환경부,정선군(낙동교),Jeongseongun(Nakdonggyo),한강,지장천,강원도 정선군 남면 낙동리 낙동교,128.693611,37.318889
16,1001670,환경부,영월군(거운교),Yeongwolgun(Geoungyo),한강,한강,강원도 영월군 영월읍 거운리 거운교,128.512222,37.234722
17,1001683,수자원공사,영월군(삼옥교),Yeongwolgun(Samokgyo),한강,한강,강원도 영월군 영월읍 삼옥리 539-1 천 삼옥교,128.51,37.207222
18,1001690,환경부,영월군(영월대교),Yeongwolgun(Yeongwoldaegyo),한강,한강,강원도 영월군 영월읍 덕포리 영월대교,128.475278,37.181944
19,1002605,환경부,평창군(이목정교),Pyeongchanggun(Imokjeonggyo),한강,속사천,강원도 평창군 용평면 이목정리 이목정교,128.471944,37.621389
20,1002610,환경부,평창군(장평교),Pyeongchanggun(Jangpyeonggyo),한강,속사천,강원도 평창군 용평면 장평리 장평교,128.412778,37.586389
21,1002615,환경부,평창군(백옥포교),Pyeongchanggun(Baekokpogyo),한강,흥정천,강원도 평창군 용평면 백옥포리 진천교,128.391389,37.586111
22,1002625,환경부,평창군(선애교),Pyeongchanggun(Sunaegyo),한강,평창강,강원도 평창군 대화면 상안미리 선애교,128.41,37.474444
23,1002635,환경부,평창군(사초교),Pyeongchanggun(Sachogyo),한강,대화천,강원도 평창군 대화면 하안미리 사초교,128.439722,37.455278
24,1002640,환경부,평창군(상방림교),Pyeongchanggun(Sangbangrimgyo),한강,평창강,강원도 평창군 방림면 방림리 상방림교,128.417222,37.431389
25,1002650,환경부,평창군(평창교),Pyeongchanggun(Pyeongchanggyo),한강,평창강,강원도 평창군 평창읍 중리 평창교,128.406111,37.367778
26,1002655,수자원공사,영월군(판운교),Yeongwolgun(Panungyo),한강,평창강,강원도 영월군 주천면 판운리 산 48-1 판운교,128.343889,37.296667
27,1002675,환경부,횡성군(안흥교),Hoengseonggun(Anheunggyo),한강,주천강,강원도 횡성군 안흥면 안흥리 안흥교,128.155,37.412222
28,1002680,환경부,영월군(두학교),Yeongwolgun(Duhackgyo),한강,주천강,강원도 영월군 수주면 두산리 두학교,128.1925,37.296389
29,1002685,환경부,영월군(주천교),Yeongwolgun(Jucheongyo),한강,주천강,강원도 영월군 주천면 주천리 주천교,128.265833,37.2675
30,1002687,환경부,영월군(신천교),Yeongwolgun(Sincheongyo),한강,주천강,강원도 영월군 한반도면 신천리 신천교,128.331667,37.229722
31,1002695,수자원공사,영월군(북쌍리),Yeongwolgun(Bukssangri),한강,평창강,강원도 영월군 남면 북쌍리 252-4 전,128.409167,37.194167
32,1002698,환경부,영월군(팔괴교),Yeongwolgun(Palgoegyo),한강,평창강,강원도 영월군 영월읍 하송리 팔괴교,128.455278,37.171944
33,1003605,환경부,영월군(충혼교),Yeongwolgun(Chunghongyo),한강,옥동천,강원도 영월군 중동면 녹전리 충혼교,128.680833,37.142222
34,1003620,환경부,영월군(옥동교),Yeongwolgun(Okdonggyo),한강,옥동천,강원도 영월군 김삿갓면 옥동리 옥동교,128.564167,37.122222
35,1003630,수자원공사,단양군(오사리),Danyanggun(Osari),한강,한강,충청북도 단양군 영춘면 오사리 339-2,128.510556,37.098889
36,1003636,환경부,단양군(가대교),Danyanggun(Gadaegyo),한강,한강,충청북도 단양군 가곡면 가대리 가대교,128.405556,37.040278
37,1003642,환경부,단양군(덕천교),Danyanggun(Dukcheongyo),한강,한강,충청북도 단양군 가곡면 덕천리 덕천교,128.389167,37.005556
38,1003644,수자원공사,단양군(상진대교),Danyanggun(Sangjindaegyo),한강,한강,충청북도 단양군 단양읍 상진리 산22-23 도 상진대교,128.345278,36.980278
39,1003645,환경부,단양군(단양1교),Danyanggun(Danyang1gyo),한강,죽령천,충청북도 단양군 단성면 북하리 단양1교,128.335556,36.931111
40,1003646,수자원공사,단양군(우화교),Danyanggun(Uhwagyo),한강,단양천,충청북도 단양군 단성면 상방리 71-7 전 우화교,128.318889,36.933333
41,1003655,수자원공사,제천시(청풍교),Jecheonsi(Cheongpunggyo),한강,한강,충청북도 제천시 청풍면 읍리 22-12 청풍교,128.18,37.0025
42,1003658,환경부,제천시(부수동교),Jecheonsi(Busudonggyo),한강,원서천,충청북도 제천시 백운면 방학리 부수동교,128.008889,37.148611
43,1003660,환경부,제천시(팔송교),Jecheonsi(Palsonggyo),한강,제천천,충청북도 제천시 봉양읍 팔송리 팔송교,128.119722,37.147222
44,1003661,환경부,제천시(구곡교),Jecheonsi(Gugokgyo),한강,제천천,충청북도 제천시 봉양읍 구곡리 구곡교,128.106111,37.112222
45,1003662,수자원공사,충주시(명서교),Chungjusi(Myeongseogyo),한강,한강,충청북도 충주시 산척면 명서리 484-3 명서교,128.029722,37.070556
46,1003665,수자원공사,충주시(충주댐방수로),Chungjusi(Chungjudambangsuro),한강,한강,충청북도 충주시 동량면 조동리 산 180-18 충주댐방수,127.991389,37.007222
47,1003666,수자원공사,충주시(충주댐),Chungjusi(Chungjudam),한강,한강,충청북도 충주시 동량면 조동리 산 180-18 충주댐,127.9925,37.006111
48,1004620,환경부,청주시(옥화1교),Cheongjusi(Okhwa1gyo),한강,달천,충청북도 청주시 상당구 미원면 옥화리 옥화1교,127.701667,36.615278
49,1004643,한수원,괴산댐,Gwoesan Dam,한강,달천,충북 괴산군 칠성면 산막이옛길 43,127.842778,36.758889
50,1004645,환경부,괴산군(수전교),Goesangun(sujungyo),한강,달천,충청북도 괴산군 칠성면 외사리 수전교,127.8425,36.767222
51,1004646,환경부,괴산군(비도교),Goesangun(Bidogyo),한강,쌍천,충청북도 괴산군 칠성면 비도리 비도교,127.878056,36.79
52,1004653,농어촌공사,소수,Sosu,남한강,동진천,충청북도 괴산군 소수면 길선리 180-5,127.718889,36.869722
53,1004670,환경부,괴산군(추산교),Goesangun(Chusangyo),한강,음성천,충청북도 괴산군 불정면 추산리 추산교,127.814167,36.893611
54,1004680,환경부,충주시(문강교),Chungjusi(Munganggyo),한강,석문동천,충청북도 충주시 살미면 문강리 문강교,127.946111,36.887778
55,1004685,수자원공사,충주시(팔봉교),Chungjusi(Palbonggyo),한강,달천,충청북도 충주시 살미면 토계리 417-6 팔봉교,127.921111,36.899167
56,1004690,수자원공사,충주시(향산리),Chungjusi(Hyangsanri),한강,달천,충청북도 충주시 살미면 향산리 492,127.924167,36.924722
57,1004692,농어촌공사,용당,Yongdang,한강,요도천,충청북도 충주시 신니면 문숭리 301-2,127.705,37.005
58,1004693,환경부,괴산군(목도교),Goesangun(Mokdogyo),한강,달천,충청북도 괴산군 불정면 목도리 목도교,127.855278,36.87
59,1004695,환경부,충주시(국원대교),Chungjusi(Kookwongyo),한강,요도천,충청북도 충주시 대소원면 검단리 국원대교,127.871667,36.966111
60,1005605,환경부,충주시(탄금교),Chungjusi(Tangeumgyo),한강,달천,충청북도 충주시 중앙탑면 창동리 탄금교,127.89,36.988611
61,1005620,수자원공사,충주시(충주조정지댐방수로),Chungjusi(Chungjujojeongjidambangsuro),한강,한강,충청북도 충주시 중앙탑면 장천리 1137-1 충주조정지?,127.865833,37.046389
62,1005635,수자원공사,충주시(충주조정지댐),Chungjusi(Chungjujojeongjidam),한강,한강,충청북도 충주시 중앙탑면 장천리 1137-2 충주조정지?,127.866389,37.044444
63,1005640,환경부,충주시(목계교),Chungjusi(Mokgyegyo),한강,한강,충청북도 충주시 엄정면 목계리 목계교,127.881111,37.076111
64,1005695,환경부,원주시(법천교),Wonjusi(Beopcheongyo),한강,법천천,강원도 원주시 부론면 법천리 법천교,127.754167,37.204444
65,1005697,환경부,원주시(남한강대교),Wonjusi(Namhangangdaegyo),한강,한강,강원도 원주시 부론면 법천리 남한강대교,127.747778,37.206111
66,1006610,수자원공사,횡성군(율동리),Hoengseonggun(Yuldongli),한강,계천,강원도 횡성군 갑천면 율동리 84-24,128.118611,37.566667
67,1006612,수자원공사,횡성군(포동2교),Hoengseonggun(Podong2gyo),한강,계천,강원도 횡성군 갑천면 포동리 671-3 포동2교,128.098611,37.5525
68,1006615,수자원공사,횡성군(횡성댐),Hoengseonggun(Hoengseongdam),한강,계천,강원도 횡성군 갑천면 대관대리 산35-1 횡성댐,128.030278,37.545278
69,1006630,환경부,횡성군(오산교),Hoengseonggun(Osangyo),한강,금계천,강원도 횡성군 공근면 오산리 오산교,127.991389,37.520833
70,1006650,환경부,횡성군(횡성교),Hoengseonggun(Hoengseonggyo),한강,섬강,강원도 횡성군 횡성읍 읍하리 횡성교,127.980556,37.495
71,1006660,환경부,횡성군(전천교),Hoengseonggun(Jeoncheongyo),한강,전천,강원도 횡성군 횡성읍 교항리 전천교,127.981389,37.482222
72,1006665,환경부,원주시(원주교),Wonjusi(Wonjugyo),한강,원주천,강원도 원주시 봉산동 원주교,127.955556,37.347778
73,1006670,환경부,원주시(옥산교),Wonjusi(Oksangyo),한강,섬강,강원도 원주시 호저면 옥산리 옥산교,127.921667,37.428611
74,1006672,환경부,원주시(장현교),Wonjusi(Janghyungyo),한강,섬강,강원도 원주시 호저면 신현리 장현교,127.898056,37.420278
75,1006680,환경부,원주시(지정대교),Wonjusi(Jijungdaegyo),한강,섬강,강원도 원주시 지정면 간현리 지정대교,127.831667,37.361667
76,1006690,환경부,원주시(문막교),Wonjusi(Munmakgyo),한강,섬강,강원도 원주시 문막읍 문막리 문막교,127.810278,37.305
77,1006693,농어촌공사,궁촌,Gungchon,한강,궁촌천,강원도 원주시 귀래면 귀래리 1425-1,127.858056,37.226667
78,1006694,농어촌공사,반계,Bangye,한강,원심천,강원도 원주시 문막읍 반계리 산78,127.777222,37.291667
79,1007604,환경부,안성시(한평교),Anseongsi(Hanpyeonggyo),한강,청미천,경기도 안성시 일죽면 고은리 한평교,127.433611,37.106389
80,1007605,환경부,이천시(장호원교),Icheonsi(Janghowongyo),한강,청미천,경기도 이천시 장호원읍 장호원리 장호원교,127.634722,37.113611
81,1007610,환경부,음성군(총천교),Eumseunggun(Chongcheongyo),한강,응천,충청북도 음성군 감곡면 원당리 총천교,127.604444,37.070833
82,1007615,환경부,여주시(원부교),Yeojusi(Wonbugyo),한강,청미천,경기도 여주시 점동면 원부리 원부교,127.634444,37.162222
83,1007617,환경부,여주시(삼합교),Yeojusi(Samhapgyo),한강,청미천,경기도 여주시 점동면 삼합리 삼합교,127.719167,37.202222
84,1007620,환경부,여주시(강천리),Yeojusi(Gangcheonri),한강,한강,경기도 여주시 강천면 강천리 546-1,127.713889,37.231111
85,1007625,환경부,여주시(남한강교),Yeojusi(Namhanganggyo),한강,한강,경기도 여주시 우만동 (구)남한강교,127.681111,37.254444
86,1007633,환경부,강천보(상류),Gangcheonbo(Sangryu),한강,한강,경기도 여주시 단현동 47-3,127.683333,37.273056
87,1007634,환경부,강천보(하류),Gangcheonbo(Haryu),한강,한강,경기도 여주시 강천면 이호리 523-2,127.684722,37.283889
88,1007635,환경부,여주시(여주대교),Yeojusi(Yeojudaegyo),한강,한강,경기도 여주시 상동 여주대교,127.647778,37.296389
89,1007639,환경부,여주보(상류),Yeojubo(Sangryu),한강,한강,경기도 여주시 대신면 천남리 680,127.615556,37.326111
90,1007640,환경부,여주시(율극교),Yeojusi(Yulgkukgyo),한강,양화천,경기도 여주시 흥천면 율극리 율극교,127.573333,37.333889
91,1007641,환경부,여주보(하류),Yeojubo(Haryu),한강,한강,경기도 여주시 능서면 왕대리 1008,127.603333,37.328611
92,1007645,환경부,이천시(복하교),Icheonsi(Bokhagyo),한강,복하천,경기도 이천시 부발읍 신하리 복하교,127.460833,37.266944
93,1007650,환경부,여주시(흥천대교),Yeojusi(Heungcheondaegyo),한강,복하천,경기도 여주시 흥천면 다대리 흥천대교,127.535278,37.333056
94,1007653,농어촌공사,대평,Deapyeong,한강,곡수천,경기도 양평군 지평면 대평리 742,127.629722,37.4225
95,1007655,환경부,여주시(양촌교),Yeojusi(Yangcheongyo),한강,곡수천,경기도 여주시 대신면 초현리 양촌교,127.562778,37.3825
96,1007662,환경부,이포보(상류),Ipobo(Sangryu),한강,한강,경기도 여주시 금사면 이포리 이포대교,127.537778,37.401111
97,1007664,환경부,이포보(하류),Ipobo(Haryu),한강,한강,경기도 여주시 대신면 천서리 674,127.541389,37.408333
98,1007672,농어촌공사,금사,Geumsa,남한강,금사천,경기도 여주시 금사면 장흥리 40,127.488889,37.388611
99,1007680,환경부,양평군(흑천교),Yangpyeonggun(Heukcheongyo),한강,흑천,경기도 양평군 개군면 공세리 흑천교,127.5275,37.466111
100,1007685,환경부,양평군(양평교),Yangpyeonggun(Yangpyeonggyo),한강,한강,경기도 양평군 양평읍 양근리 양평교,127.49,37.486389
101,1007690,환경부,양평군(봉상교),Yangpyeonggun(Bongsanggyo),한강,흑천,경기도 양평군 단월면 봉상리 봉상교,127.651389,37.511667
102,1007697,환경부,양평군(신원리),Yangpyeonggun(Sinwonri),한강,한강,경기도 양평군 양서면 신원리 462-2,127.371389,37.525
103,1009650,수자원공사,화천군(평화의댐),Hwacheongun(Pyeonghwauidam),한강,북한강,강원도 화천군 화천읍 평화로 3484 평화의댐,127.845,38.211111
104,1009652,수자원공사,화천군(평화나래교),Hwacheongun(Pyeonghwanaraegyo),한강,북한강,강원도 양구군 방산면 천미리 353-7 평화나래교,127.851389,38.207778
105,1010640,수자원공사,양구군(각시교),Yanggugun(Gagsigyo),한강,수입천,강원도 양구군 방산면 평화로 4841 각시교,127.925833,38.190556
106,1010660,환경부,화천군(화천댐),Hwacheongun(Hwacheondam),한강,북한강,강원도 화천군 간동면 구만리 화천댐,127.777222,38.1175
107,1010661,한수원,화천댐,Hwacheon Dam,한강,북한강,강원도 화천군 간동면 어룡동길 42,127.783333,38.116667
108,1010670,수자원공사,화천군(오작교),Hwacheongun(Ojakgyo),한강,북한강,강원도 화천군 화천읍 풍산리 산 268 오작교,127.811389,38.285
109,1010677,한수원,용신교,Yongsin Kyo,한강,화천천,강원도 화천군 화천읍 상리 328,127.701667,38.1125
110,1010680,수자원공사,화천군(화천대교),Hwacheongun(Hwacheondaegyo),한강,북한강,강원도 화천군 하남면 위라리 395-11 화천대교,127.708333,38.100556
111,1010684,한수원,구오탄교,Gu)Otan Kyo,한강,지촌천,강원도 춘천시 사북면 오탄리 산1-2,127.635,38.050556
112,1010688,한수원,춘천댐,Chucheon Dam,한강,북한강,강원도 춘천시 신북읍 영서로 3741,127.670833,37.966667
113,1010690,환경부,춘천시(춘천댐),Chuncheonsi(Chuncheondam),한강,북한강,강원도 춘천시 신북읍 용산리 춘천댐,127.668333,37.968611
114,1010695,환경부,춘천시(춘천댐하류),Chuncheonsi(Chuncheondamharyu),한강,북한강,강원도 춘천시 서면 서상리 산 2-2,127.675833,37.959444
115,1011620,환경부,인제군(반월촌교),Injegun(Banwolchongyo),한강,인북천,강원도 인제군 서화면 심적리 반월촌교,128.203611,38.264444
116,1011650,수자원공사,인제군(어두원교),Injegun(Eoduweongyo),한강,북천,강원도 인제군 북면 원통리 235 어두원교,128.233611,38.135556
117,1011690,수자원공사,인제군(월학리),Injegun(Weolhakri),한강,인북천,강원도 인제군 북면 원통로 177번길 167,128.188889,38.125278
118,1011693,수자원공사,인제군(도리촌교),Injegun(Dorichongyo),한강,인북천,강원도 인제군 북면 냇강마을로 21 도리촌교,128.206944,38.1475
119,1011695,환경부,인제군(리빙스턴교),Injegun(Livingstongyo),한강,인북천,강원도 인제군 인제읍 합강리 리빙스턴교,128.183333,38.088333
120,1012630,환경부,인제군(왕성동교),Injegun(Waeongseongdonggyo),한강,내린천,강원도 인제군 상남면 미산리 왕성동교,128.322778,37.871944
121,1012635,환경부,인제군(양지교),Injegun(Yangjigyo),한강,방내천,강원도 인제군 상남면 미산리 양지교,128.288333,37.876667
122,1012640,환경부,인제군(현리교),Injegun(Hyeonrigyo),한강,방태천,강원도 인제군 기린면 현리 현리교,128.317222,37.948056
123,1012645,환경부,인제군(하죽천교),Injegun(Hajukcheongyo),한강,소양강,강원도 인제군 기린면 서리 하죽천교,128.308056,37.976944
124,1012650,수자원공사,인제군(원대교),Injegun(Weondaegyo),한강,소양강,강원도 인제군 인제읍 자작나무숲길 240 원대교,128.240556,38.008056
125,1012657,수자원공사,인제군(사구미교),Injegun(Sagumigyo),한강,소양강,강원도 인제군 인제읍 살구미길 73 사구미교,128.168333,38.055278
126,1012670,수자원공사,인제군(양구대교),Injegun(Yanggudaegyo),한강,소양강,강원도 인제군 남면 삼팔선로 1497 양구대교,128.056667,37.993889
127,1012680,수자원공사,춘천시(소양강댐),Chuncheonsi(Soyanggangdam),한강,소양강,강원도 춘천시 신북읍 신샘밭로 1128 소양강댐,127.815278,37.949167
128,1012685,환경부,춘천시(천전리),Chuncheonsi(Cheonjeonri),한강,소양강,강원도 춘천시 신북읍 천전리 61-20,127.789722,37.930278
129,1012688,수자원공사,춘천시(소양6교),Chuncheonsi(Soyang6gyo),한강,소양강,강원도 춘천시 신북읍 샘수1길 8-11 소양6교,127.776667,37.9275
130,1013620,한수원,목동교,Mokdoog Kyo,한강,가평천,경기도 가평군 북면 목동리 818-3,127.548333,37.883056
131,1013635,한수원,의암댐,Uiam Dam,한강,북한강,강원도 춘천시 신동면 옛경춘로 62-15,127.673611,37.838056
132,1013637,환경부,춘천시(소양2교),Chuncheonsi(Soyang2gyo),한강,북한강,강원도 춘천시 근화동 소양2교,127.7225,37.893056
133,1013645,환경부,춘천시(강촌교),Chuncheonsi(Gangchongyo),한강,북한강,강원도 춘천시 남산면 강촌리 강촌교,127.633611,37.8175
134,1013655,환경부,가평군(가평교),Gapyeonggun(Gapyeonggyo),한강,가평천,경기도 가평군 가평읍 읍내리 가평교,127.518056,37.831389
135,1014620,환경부,홍천군(용선교),Hongcheongun(Yongsungyo),한강,내촌천,강원도 홍천군 내촌면 답풍리 용선교,128.065278,37.813333
136,1014630,환경부,홍천군(주음치교),Hongcheongun(Jueumchigyo),한강,홍천강,강원도 홍천군 화촌면 주음치리 주음치교,127.983333,37.784444
137,1014635,한수원,후영교,Huyeong Kyo,한강,달천,충청북도 괴산군 청천면 후영리 499,127.812222,36.704722
138,1014640,환경부,홍천군(굴운교),Hongcheongun(Gyulwungyo),한강,홍천강,강원도 홍천군 화촌면 굴운리 굴운교,127.941389,37.738611
139,1014650,환경부,홍천군(홍천교),Hongcheongun(Hongcheongyo),한강,홍천강,강원도 홍천군 홍천읍 연봉리 홍천교,127.878889,37.687222
140,1014665,환경부,홍천군(남노일대교),Hongcheongun(Namnoildeagyo),한강,홍천강,강원도 홍천군 남면 남노일리 남노일대교,127.770556,37.675278
141,1014680,환경부,홍천군(반곡교),Hongcheongun(Bangokgyo),한강,홍천강,강원도 홍천군 서면 반곡리 반곡교,127.670556,37.693611
142,1014695,한수원,한덕교,Handeog Kyo,한강,홍천강,강원도 춘천시 남면 한덕리 612-17,127.611111,37.675278
143,1014696,환경부,홍천군(모곡교),Hongcheongun(Mogokgyo),한강,중방대천,강원도 홍천군 서면 모곡리 모곡교,127.605,37.671944
144,1015630,한수원,산장제1교,Sanjang 1 Kyo,한강,조종천,경기도 가평군 상면 덕현리 734,127.410278,37.755
145,1015639,한수원,청평댐,Cheongpyung Dam,한강,북한강,경기도 가평군 설악면 유명로 2630,127.424444,37.720833
146,1015640,환경부,가평군(청평댐),Gapyeonggun(Cheongpyeongdam),한강,북한강,경기도 가평군 설악면 회곡리 745-27,127.423056,37.723333
147,1015644,환경부,가평군(청평교),Gapyeonggun(Cheongpyeonggyo),한강,조종천,경기도 가평군 청평면 청평리 청평교,127.414444,37.734167
148,1015645,환경부,가평군(신청평대교),Gapyeonggun(Sincheongpyeongdaegyo),한강,북한강,경기도 가평군 청평면 삼회리 신청평대교,127.410278,37.718056
149,1015680,환경부,남양주시(삼봉리),Namyangjusi(Sambongri),한강,북한강,경기도 남양주시 조안면 삼봉리 235-1,127.339167,37.595278
150,1016607,환경부,용인시(월촌교),Yonginsi(WolChongyo),한강,경안천,경기도 용인시 처인구 모현면 갈담리 월촌교,127.239444,37.3325
151,1016650,환경부,광주시(경안교),Gwangjusi(Gyeongangyo),한강,경안천,경기도 광주시 쌍령동 경안교,127.263056,37.406667
152,1016660,환경부,광주시(섬뜰교),Gwangjusi(Sumthlgyo),한강,곤지암천,경기도 광주시 초월읍 도평리 섬뜰교,127.292778,37.399167
153,1016670,환경부,광주시(서하교),Gwangjusi(Seohagyo),한강,경안천,경기도 광주시 초월읍 서하리 서하교,127.308333,37.428889
154,1016695,환경부,광주시(광동교),Gwangjusi(Gwangdonggyo),한강,경안천,경기도 광주시 퇴촌면 광동리 광동교,127.294167,37.471111
155,1017678,한수원,팔당댐,PaldDang Dam,한강,한강,경기도 남양주시 조안면 다산로 320,127.284722,37.525
156,1017690,환경부,남양주시(팔당댐),Namyangjusi(Paldangdam),한강,한강,경기도 남양주시 조안면 능내리 팔당댐,127.283333,37.527222
157,1018610,환경부,남양주시(팔당대교),Namyangjusi(Paldangdaegyo),한강,한강,경기도 남양주시 와부읍 팔당리 팔당대교,127.239444,37.547778
158,1018620,환경부,남양주시(부평교),Namyangjusi(Bupyeonggyo),한강,왕숙천,경기도 남양주시 진접읍 부평리 부평교,127.196667,37.740278
159,1018623,환경부,남양주시(연평대교),Namyangjusi(Yeonpyeongdaegyo),한강,진건천,경기도 남양주시 진접읍 연평리 연평대교,127.182222,37.71
160,1018625,환경부,남양주시(내곡교),Namyangjusi(Naegokgyo),한강,왕숙천,경기도 남양주시 진접읍 내각리 내곡교,127.164722,37.691667
161,1018630,환경부,남양주시(진관교),Namyangjusi(Jingwangyo),한강,왕숙천,경기도 남양주시 퇴계원면 퇴계원리 진관교,127.151944,37.65
162,1018635,환경부,남양주시(퇴계원리),Namyangjusi(Toegyewonri),한강,용암천,경기도 남양주시 퇴계원면 퇴계원리 339-6,127.138056,37.645
163,1018638,환경부,남양주시(왕숙교),Namyangjusi(Wangsukgyo),한강,왕숙천,경기도 남양주시 다산동 왕숙교,127.148056,37.603611
164,1018640,환경부,서울시(광진교),Seoulsi(Gwangjingyo),한강,한강,서울특별시 광진구 광장동 광진교,127.110278,37.545556
165,1018650,환경부,성남시(궁내교),Seongnamsi(Gungnaegyo),한강,탄천,경기도 성남시 분당구 정자동 궁내교,127.108333,37.37
166,1018655,환경부,서울시(대곡교),Seoulsi(Daegokgyo),한강,탄천,서울특별시 강남구 세곡동 대곡교,127.1225,37.468889
167,1018658,환경부,서울시(대치교),Seoulsi(Daechigyo),한강,양재천,서울특별시 강남구 대치동 대치교,127.074444,37.498333
168,1018662,환경부,서울시(청담대교),Seoulsi(Chungdamdaegyo),한강,한강,서울특별시 강남구 청담동 청담대교,127.062778,37.523056
169,1018665,환경부,의정부시(신곡교),Uijeongbusi(Singokgyo),한강,중랑천,경기도 의정부시 의정부동 신곡교,127.053333,37.735278
170,1018669,환경부,서울시(창동교),Seoulsi(changdonggyo),한강,중랑천,서울특별시 도봉구 창동 창동교,127.054167,37.652778
171,1018670,환경부,서울시(월계2교),Seoulsi(Wallgae2gyo),한강,우이천,서울특별시 노원구 월계동 월계2교,127.05,37.624167
172,1018675,환경부,서울시(중랑교),Seoulsi(Jungranggyo),한강,중랑천,서울특별시 중랑구 중화동 중랑교,127.070556,37.5925
173,1018680,환경부,서울시(잠수교),Seoulsi(Jamsugyo),한강,한강,서울특별시 용산구 서빙고동 잠수교,126.995278,37.517222
174,1018683,환경부,서울시(한강대교),Seoulsi(Hangangdaegyo),한강,한강,서울특별시 동작구 노량진동 한강대교,126.956667,37.514444
175,1018690,환경부,안양시(충훈1교),Anyangsi(Chunghoon1gyo),한강,안양천,경기도 얀양시 만안구 박달동 충훈1교,126.903056,37.404722
176,1018693,환경부,광명시(시흥대교),Gwangmyeongsi(Sihuengdaegyo),한강,안양천,경기도 광명시 소화동 시흥대교,126.893333,37.452222
177,1018695,환경부,서울시(너부대교),Seoulsi(Nerbudaegyo),한강,목감천,서울특별시 구로구 천왕동 너부대교,126.845556,37.478889
178,1018697,환경부,서울시(오금교),Seoulsi(Ogmgyo),한강,안양천,서울특별시 양천구 신정동 오금교,126.874167,37.508333
179,1019620,환경부,부천시(도두리2교),Bucheonsi(Doduri2gyo),한강,굴포천,경기도 부천시 오정구 삼정동 도두리2교,126.760556,37.532222
180,1019630,환경부,서울시(행주대교),Seoul(Haengjudaegyo),한강,한강,경기도 고양시덕양구 행주외동 행주대교,126.814722,37.603056
181,1019675,환경부,김포시(전류리),Gimposi(Jeonryuri),한강,한강,경기도 김포시 하성면 전류리 478,126.664444,37.695833
182,1019680,환경부,파주시(교하교),Pajusi(Gyohagyo),한강,공릉천,경기도 파주시 하지석동 교하교,126.761389,37.760278
183,1021650,환경부,연천군(필승교),Yeoncheongun(Philseunggyo),한강,임진강,경기도 연천군 중면 횡산리 필승교,126.960833,38.111111
184,1021660,수자원공사,연천군(군남댐),Yeoncheon(Gunnamdam),한강,임진강,경기도 연천군 군남면 솔너머길 99 군남댐,127.015833,38.105278
185,1021680,환경부,연천군(임진교),Yeoncheongun(Imjingyo),한강,임진강,경기도 연천군 군남면 진상리 임진교,127.0175,38.056389
186,1022626,환경부,철원군(장수대교),Cheorwongun(Jangsudaegyo),한강,화강,강원도 철원군 김화읍 청양리 장수대교,127.374444,38.246111
187,1022630,환경부,철원군(삼합교),Cheorwongun(Samhapgyo),한강,한탄강,강원도 철원군 갈말읍 정연리 삼합교,127.349167,38.293889
188,1022631,농어촌공사,토교,Toegyo,한강,한탄강,강원도 철원군 동송읍 양지리 358-1,127.288889,38.272222
189,1022635,환경부,철원군(한탄대교),Cheorwongun(Hangtangdaegyo),한강,한탄강,강원도 철원군 동송읍 장흥리 한탄대교,127.299167,38.186944
190,1022638,수자원공사,철원군(군탄교),Cheorwongun(Guntangyo),한강,한탄강,강원도 철원군 갈말읍 군탄리 산 165-3 군탄교,127.278889,38.140833
191,1022640,환경부,포천시(용담교),Pocheonsi(Naengjungri),한강,한탄강,경기도 포천시 영북면 자일리 용담교,127.271944,38.123889
192,1022642,수자원공사,포천시(대회산교),Pochenonsi(Daehoesangyo),한강,한탄강,경기도 포천시 관인면 중리 산 123-7 대회산교,127.221389,38.089167
193,1022643,수자원공사,포천시(영로대교),Pochenonsi(Yeongrodaegyo),한강,한탄강,경기도 포천시 영북면 호국로 4091번길 195 영로대교,127.205278,38.0675
194,1022644,수자원공사,연천군(한탄강댐),Yeoncheon(Hantangangdam),한강,한탄강,경기도 연천군 연천읍 현문로 508번길 140 한탄강댐,127.133056,38.063889
195,1022645,수자원공사,연천군(한여울교),Yeoncheon(Hanyeoulgyo),한강,한탄강,경기도 연천군 연천읍 청연로 394 한여울교,127.129167,38.060833
196,1022648,환경부,포천시(은현교),Pocheonsi(Eunhyungyo),한강,포천천,경기도 포천시 영중면 거사리 은현교,127.238611,38.002222
197,1022650,환경부,포천시(영평교),Pocheonsi(Yeongpyeongyo),한강,영평천,경기도 포천시 영중면 영송리 영평교,127.214444,38.010833
198,1022655,환경부,포천시(신백의교),Pocheonsi(Sinbaekuigyo),한강,영평천,경기도 포천시 창수면 고소성리 신백의교,127.142778,38.018056
199,1022662,환경부,연천군(차탄교),Yeoncheongun(Chatangyo),한강,차탄천,경기도 연천군 연천읍 차탄리 차탄교,127.071944,38.0875
200,1022666,수자원공사,연천군(고탄교),Yeoncheon(Gotangyo),한강,한탄강,경기도 연천군 전곡읍 전영로73번길 30 고탄교,127.075833,38.031111
201,1022668,환경부,동두천시(송천교),Dongducheonsi(Songcheongyo),한강,신천,경기도 동두천시 송내동 송천교,127.051389,37.880278
202,1022670,환경부,연천군(신천교),Yeoncheongun(Sincheongyo),한강,신천,경기도 연천군 청산면 대전리 신천교,127.076944,37.993056
203,1022680,환경부,연천군(사랑교),Yeoncheongun(Saranggyo),한강,한탄강,경기도 연천군 전곡읍 전곡리 사랑교,127.056389,38.009167
204,1023640,환경부,연천군(삼화교),Yeoncheongun(Samhwagyo),한강,임진강,경기도 연천군 미산면 마전리 삼화교,126.983333,38.025278
205,1023660,환경부,파주시(비룡대교),Pajusi(Biryongdaegyo),한강,임진강,경기도 파주시 적성면 가월리 비룡대교,126.919167,37.985278
206,1023662,환경부,연천군(사미천교),Yeoncheongun(Samicheongyo),한강,사미천,경기도 연천군 장남면 원당리 사미천교,126.878611,38.003333
207,1023670,환경부,파주시(통일대교),Pajusi(Tongildaegyo),한강,임진강,경기도 파주시 문산읍 마정리 통일대교,126.741667,37.904444
208,1023680,환경부,파주시(아가메교),Pajusi(Agamaegyo),한강,문산천,경기도 파주시 월롱면 능산리 아가메교,126.783889,37.821389
209,1101605,환경부,화성시(화산교),Hwaseongsi(Hwasangyo),안성천,황구지천,경기도 화성시 송산동 화산교,127.020278,37.217778
210,1101609,농어촌공사,금광,Geumgwang,안성천,조령천,경기도 안성시 금광면 금광리 175,127.33,36.996944
211,1101610,환경부,안성시(옥산대교),Anseongsi(Anseongdaegyo),안성천,안성천,경기도 안성시 도기동 옥산대교,127.250278,37.001389
212,1101615,농어촌공사,고삼,Gosam,안성천,한천,경기도 안성시 고삼면 월향리 624-1,127.273056,37.081111
213,1101620,환경부,안성시(건천리),Anseongsi(Guncheonri),안성천,안성천,경기도 안성시 공도읍 건천리 2-5,127.1825,36.973611
214,1101625,농어촌공사,이동,Idong,안성천,진위천,경기도 용인시 처인구 이동읍 어비리 1335-1,127.184444,37.110278
215,1101630,환경부,천안시(안성천교),Cheonansi(Anseongcheongyo),안성천,안성천,충청남도 천안시 서북구 성환읍 신가리 (구)안성천교,127.110833,36.970278
216,1101635,환경부,평택시(군문교),Pyeongtaeksi(Gunmoongyo),안성천,안성천,경기도 평택시 군문동 군문교,127.08,36.983611
217,1101645,환경부,오산시(탑동대교),Osansi(Tapdongdaegyo),안성천,오산천,경기도 오산시 누읍동 탑동대교,127.058056,37.133889
218,1101650,환경부,화성시(수직교),Hwaseongsi(Sujikgyo),안성천,황구지천,경기도 화성시 향남면 수직리 수직교,126.999722,37.123611
219,1101663,환경부,평택시(진위1교),Pyeongtaeksi(Jinwi1gyo),안성천,진위천,경기도 평택시 진위면 하북리 진위1교,127.052222,37.095
220,1101665,환경부,평택시(회화리),Pyeongtaeksi(Hoehwari),안성천,진위천,경기도 평택시 서탄면 회화리 388,127.028889,37.096111
221,1101670,환경부,평택시(동연교),Pyeongtaeksi(Dongyeongyo),안성천,진위천,경기도 평택시 고덕면 동청리 동연교,126.9975,37.0525
222,1101680,환경부,평택시(팽성대교),Pyeongtaeksi(Paeongseongdaegyo),안성천,안성천,경기도 평택시 팽성읍 원정리 팽성대교,127.033611,36.978056
223,1201620,환경부,강화군(강화대교),Ganghwagun(Ganghwadaegyo),한강,한강,인천광역시 강화군 강화읍 갑곶리 강화대교,126.527778,37.731667
224,1301630,환경부,양양군(용천2교),Yangyanggun(Yongcheon2gyo),양양남대천,양양남대천,강원도 양양군 서면 용천리 용천2교,128.608056,38.055556
225,1301658,환경부,양양군(양양대교),Yangyanggun(Yangyangdaegyo),양양남대천,양양남대천,강원도 양양군 양양읍 월리 양양대교,128.631667,38.075278
226,1302645,농어촌공사,오봉,Obong,강릉남대천,강릉남대천,강원도 강릉시 성산면 오봉리 산115,128.816111,37.698889
227,1302648,환경부,강릉시(회산교),Gangryungsi(Hoesangyo),강릉남대천,강릉남대천,강원도 강릉시 회산동 회산교,128.87,37.743056
228,1302665,수자원공사,동해시(원평교),Donghaesi(Wonpyunggyo),한강동해,신흥천,강원도 동해시 이로동 138 원평교,129.067222,37.489722
229,1302668,환경부,동해시(북평교),Donghaesi(Bukpyeonggyo),한강동해,전천,강원도 동해시 북평동 북평교,129.125,37.485278
230,1302670,환경부,강릉시(송림교),Gangneungsi(Songrimgyo),한강동해,연곡천,강원도 강릉시 연곡면 송림리 송림교,128.810556,37.846944
231,1303610,환경부,삼척시(남양촌교),Samcheoksi(Namyangchongyo),한강동해,가곡천,강원도 삼척시 원덕읍 기곡리 남양촌교,129.260278,37.143333
232,1303650,환경부,삼척시(상정교),Samcheoksi(Sangjeonggyo),삼척오십천,삼척오십천,강원도 삼척시 미로면 상정리 상정교,129.098611,37.382778
233,1303680,환경부,삼척시(오십천교),Samcheoksi(Osipcheongyo),삼척오십천,삼척오십천,강원도 삼척시 남양동 오십천교,129.168056,37.438056
234,2001610,환경부,태백시(문화교),Taebaeksi(Munhwagyo),낙동강,황지천,강원도 태백시 장성동 216 (문화교),129.017222,37.095833
235,2001613,수자원공사,태백시(루사교),Taebaeksi(Lusagyo),낙동강,철암천,강원도 태백시 동점동 루사교,129.044167,37.0925
236,2001615,환경부,봉화군(대현교),Bonghwagun(Daehyeongyo),낙동강,낙동강,경상북도 봉화군 석포면 석포리 699-2 (대현교),129.043889,37.064167
237,2001625,환경부,봉화군(광회교),Bonghwagun(Gwanghoegyo),낙동강,회룡천,경상북도 봉화군 소천면 분천리 1939(광회교),129.110278,36.934444
238,2001628,환경부,봉화군(분천교),Bonghwagun(BunCheongyo),낙동강,낙동강,경상북도 봉화군 소천면 분천리 1143-1(분천교),129.056667,36.930278
239,2001629,수자원공사,봉화군(현동교),Bonghwagun(Hyeondonggyo),낙동강,낙동강,경상북도 봉화군 소천면 현동리 현동교,129.011389,36.931944
240,2001630,수자원공사,봉화군(임기리),Bonghwagun(Imgiri),낙동강,낙동강,경상북도 봉화군 소천면 임기리 1504,129.001111,36.883333
241,2001655,환경부,봉화군(도천교),Bonghwagun(Docheongyo),낙동강,운곡천,경상북도 봉화군 명호면 도천리 1378 (도천교),128.901944,36.859444
242,2001658,수자원공사,봉화군(양삼교),Andongsi(Yangsamgyo),낙동강,낙동강,경상북도 봉화군 명호면 관창리 111-2 양삼교,128.885833,36.778889
243,2001680,수자원공사,안동시(안동댐방수로),Andongsi(Andongdambangsuro),낙동강,낙동강,경상북도 안동시 성곡동 산164-19,128.770833,36.583611
244,2001685,수자원공사,안동시(안동댐),Andongsi(Andongdam),낙동강,낙동강,경상북도 안동시 성곡동 산164-19,128.774444,36.582778
245,2001690,수자원공사,안동시(안동조정지댐),Andongsi(Andongjojeongjidam),낙동강,낙동강,경상북도 안동시 성곡동 산28-3,128.748611,36.566944
246,2002609,수자원공사,청송군(성덕댐),Cheongsonggun(Seongdeokdam),낙동강,보현천,경상북도 청송군 안덕면 성덕댐로 1191,128.963056,36.241944
247,2002613,수자원공사,포항시(상사4교),Pohangsi(Sangsa4gyo),낙동강,병보천,경상북도 포항시 죽장면 하사리 상사4교,129.088333,36.253889
248,2002616,수자원공사,청송군(명당리),Cheongsonggun(Myoungdangri),낙동강,보현천,경상북도 청송군 안덕면 명당리 663-1,128.956944,36.285278
249,2002620,수자원공사,영양군(양평교),Yeongyanggun(Yangpyeonggyo),낙동강,반변천,경상북도 영양군 영양읍 현2리 양평교,129.106389,36.653056
250,2002630,수자원공사,청송군(송강2교),Cheongsonggun(Songgang2gyo),낙동강,용전천,경상북도 청송군 파천면 송강리 293 송강2교,129.021389,36.483889
251,2002633,수자원공사,영양군(임천교),Yeongyanggun(Imcheongyo),낙동강,동천,경상북도 영양군 입암면 연당리 780-1 임천교,129.067222,36.614444
252,2002634,환경부,영양군(청암교),Yeongyanggun(Cheongamgyo),낙동강,반변천,경상북도 영양군 입암면 신구리 704 (청암교),129.085556,36.597222
253,2002635,수자원공사,영양군(흥구리),Yeongyanggun(Heungguri),낙동강,반변천,경상북도 영양군 입암면 흥구리 514-2,129.065833,36.545556
254,2002638,수자원공사,영양군(흥구교),Yeongyanggun(Heunggugyo),낙동강,반변천,경상북도 영양군 입암면 흥구리 흥구교,129.080556,36.551944
255,2002645,수자원공사,청송군(광덕교),Cheongsonggun(Gwangdeokgyo),낙동강,서시천,경상북도 청송군 진보면 각산리 광덕교,129.043333,36.536111
256,2002655,수자원공사,청송군(덕천교),Cheongsonggun(Deokcheongyo),낙동강,용전천,경상북도 청송군 파천면 덕천리 728-1 덕천교,129.030278,36.442778
257,2002675,수자원공사,안동시(임하댐방수로),Andongsi(Imhadambangsuro),낙동강,반변천,경상북도 안동시 임하면 천전리 1084-12,128.881111,36.538611
258,2002677,수자원공사,안동시(임하댐),Andongsi(Imhadam),낙동강,반변천,경상북도 안동시 임하면 천전리 1084-12,128.884444,36.538889
259,2002680,수자원공사,안동시(임하조정지댐),Andongsi(Imhajojeongjidam),낙동강,반변천,경상북도 안동시 임하면 천전리 1084-15,128.845278,36.536389
260,2002685,환경부,안동시(묵계교),Andongsi(Mukgyegyo),낙동강,길안천,경상북도 안동시 길안면 묵계리 1127-85 ((구)묵계교),128.910833,36.431667
261,2002686,수자원공사,안동시(신덕교),Andongsi(Sindeokgyo),낙동강,길안천,경상북도 안동시 임하면 신덕리 1298-158 신덕교,128.8375,36.519444
262,2002692,수자원공사,안동시(포진교),Andongsi(Pojingyo),낙동강,반변천,경상북도 안동시 남선면 이천리 752 포진교,128.795278,36.534722
263,2002695,환경부,안동시(대사3교),Andongsi(Daesa3gyo),낙동강,길안천,경상북도 안동시 길안면 대사리 785 (대사3교),128.959167,36.366111
264,2003610,수자원공사,안동시(안동대교),Andongsi(Andongdeagyo),낙동강,낙동강,경상북도 안동시 태화동 안동대교,128.699722,36.550278
265,2003640,환경부,안동시(운산리),Andongsi(Unsanri),낙동강,미천,경상북도 안동시 일직면 운산리 166-2,128.66,36.479444
266,2003650,수자원공사,안동시(검암교),Andongsi(Geomamgyo),낙동강,미천,경상북도 안동시 남후면 검암리 312 검암교,128.656944,36.540833
267,2003670,환경부,예천군(구담교),Yecheongun(Gudamgyo),낙동강,낙동강,경상북도 예천군 지보면 암천리 708 (구담교),128.463056,36.539444
268,2003690,환경부,의성군(풍지교),Uiseonggun(Pungjigyo),낙동강,낙동강,경상북도 의성군 다인면 용곡리 764 (풍지교),128.364444,36.529722
269,2004605,환경부,봉화군(봉화대교),Bonghwagun(Bonghwadaegyo),낙동강,내성천,경상북도 봉화군 봉화읍 내성리 506 (봉화대교),128.731944,36.8875
270,2004608,수자원공사,영주시(이산교),Yeongjusi(Isangyo),낙동강,내성천,경상북도 영주시 이산면 신암리 1436-4 이산교,128.686944,36.852778
271,2004610,수자원공사,영주시(영주유사조절지),Yeongjusi(Yeongjuyusajojeolji),낙동강,내성천,경상북도 영주시 이산면 신천리 152,128.701111,36.784722
272,2004630,수자원공사,영주시(영주댐),Yeongjusi(YeongjuDam),낙동강,내성천,경상북도 영주시 평은면 용혈리 산 180-1,128.656389,36.721667
273,2004632,수자원공사,영주시(용혈리),Yeongjusi(Yonghyeolri),낙동강,내성천,경상북도 영주시 평은면 용혈리 1184-1 미림교,128.645,36.718056
274,2004635,환경부,영주시(월호교),Yeongjusi(Wolhogyo),낙동강,서천,경상북도 영주시 문수면 적동리 738 (월호교),128.621111,36.763056
275,2004640,환경부,영주시(석탑교),Yeongjusi(Seoktapgyo),낙동강,내성천,경상북도 영주시 문수면 조제리 1136 (석탑교),128.600833,36.715
276,2004650,환경부,예천군(미호교),Yecheongun(Mihogyo),낙동강,내성천,경상북도 예천군 보문면 미호리 401 (미호교),128.518056,36.669444
277,2004655,환경부,예천군(고평교),Yecheongun(Gopyeonggyo),낙동강,내성천,경상북도 예천군 호명면 월포리 624 (고평교),128.4875,36.619167
278,2004668,환경부,예천군(신예천교),Yecheongun(Sinyecheongyo),낙동강,한천,경상북도 예천군 예천읍 남본리 310-1 (신예천교),128.448611,36.650278
279,2004675,환경부,예천군(신음리),Yecheongun(Sineumri),낙동강,내성천,경상북도 예천군 개포면 신음리 545,128.348333,36.584167
280,2004680,환경부,예천군(회룡교),Yecheongun(Hoeryonggyo),낙동강,내성천,경상북도 예천군 용궁면 대은리 950 (회룡교),128.319444,36.586111
281,2004695,환경부,예천군(산양교),Yecheongun(Sannyanggyo),낙동강,금천,경상북도 예천군 용궁면 읍부리 508 (산양교),128.260833,36.611389
282,2005640,환경부,문경시(갈마교),Mungyeongsi(Galmagyo),낙동강,영강,경상북도 문경시 가은읍 갈전리 1014-1 (갈마교),128.086389,36.638889
283,2005650,환경부,문경시(불정동),Mungyeongsi(Buljeongdong),낙동강,영강,경상북도 문경시 호계면 견탄리 577-3 (불정교),128.148611,36.645833
284,2005660,환경부,문경시(김용리),Mungyeongsi(Gimyongri),낙동강,영강,경상북도 문경시 영순면 김용리 259-2,128.216667,36.589167
285,2005670,수자원공사,상주시(상우교),Sangjusi(Sangwugyo),낙동강,이안천,경상북도 상주시 외서면 우산리 상우교,128.064722,36.47
286,2005680,환경부,상주시(이안교),Sangjusi(Iangyo),낙동강,이안천,경상북도 상주시 이안면 이안리 493-1 (이안교),128.158889,36.543889
287,2006625,환경부,상주시(병성교),Sangjusi(Byeongseonggyo),낙동강,병성천,경상북도 상주시 병성동 805 (병성교),128.221389,36.435556
288,2006630,환경부,상주시(소천2교),Sangjusi(Socheon2gyo),낙동강,병성천,경상북도 상주시 가장동 637-1 (소천2교),128.147778,36.375278
289,2006665,환경부,상주시(후천교),Sangjusi(Hucheongyo),낙동강,북천,경상북도 상주시 계산동 523 (후천교),128.158611,36.428056
290,2006675,환경부,상주시(화계교),Sangjusi(Hwagyegyo),낙동강,병성천,경상북도 상주시 성동동 646 (화계교),128.183056,36.418611
291,2007620,환경부,문경시(말응리),Mungyeongsi(Mareungri),낙동강,낙동강,경상북도 문경시 영순면 말응리 산93,128.261389,36.5425
292,2007640,환경부,문경시(이목리),Mungyeongsi(Imokri),낙동강,낙동강,경상북도 문경시 영순면 이목리 산80,128.291944,36.568611
293,2007660,환경부,예천군(상풍교),Yecheongun(Sangpunggyo),낙동강,낙동강,경상북도 예천군 풍양면 효갈리1083-1 (상풍교),128.268611,36.498611
294,2007680,환경부,상주시(상주보상),Sangjusi(SangjuboUP),낙동강,낙동강,경상북도 상주시 중동면 오상리 782-3,128.251667,36.432222
295,2007682,환경부,상주시(상주보하),Sangjusi(SangjuboDN),낙동강,낙동강,경상북도 상주시 도남동 810-1,128.242778,36.435
296,2007686,환경부,상주시(강창교),Sangjusi(Gangchanggyo),낙동강,낙동강,경상북도 상주시 낙동면 신상리 산 18-1 (강창교),128.244444,36.409722
297,2008603,수자원공사,군위군(군위댐),Gunwigun(Gunwidam),낙동강,위천,경상북도 군위군 고로면 학성리 407,128.794167,36.120556
298,2008605,수자원공사,군위군(동곡교),Gunwigun(Dongkokgyo),낙동강,위천,경상북도 군위군 고로면 양지리 동곡교,128.821944,36.161111
299,2008621,수자원공사,군위군(화수교),Gunwigun(Hwasugyo),낙동강,위천,경상북도 군위군 고로면 화수리 화수교,128.754167,36.126111
300,2008628,환경부,의성군(구미교),Uiseonggun(Gumigyo),낙동강,남대천,경상북도 의성군 봉양면 구미리 475-2 (구미교),128.6,36.306111
301,2008630,환경부,군위군(미성교),Gunwigun(Miseonggyo),낙동강,위천,경상북도 군위군 우보면 이화리 575-9 (미성교),128.672222,36.181667
302,2008631,환경부,의성군(덕은교),Uiseonggun(Deokeungyo),낙동강,쌍계천,경상북도 의성군 봉양면 구산리 1645-220 (덕은교),128.608889,36.29
303,2008632,환경부,의성군(비안교),Uiseonggun(Biangyo),낙동강,위천,경상북도 의성군 비안면 서부리 773 (비안교),128.488333,36.335278
304,2008633,환경부,의성군(장송교),Uiseonggun(Jangsonggyo),낙동강,위천,경상북도 의성군 비안면 장춘리 111-1 (장송교),128.520833,36.327778
305,2008635,환경부,군위군(병수리),Gunwigun(Byeongsuri),낙동강,위천,경상북도 군위군 효령면 병수리 703,128.585556,36.176944
306,2008645,환경부,군위군(효령교),Gunwigun(Hyoryeonggyo),낙동강,남천,경상북도 군위군 효령면 중구리 725-1 (효령교),128.583889,36.155556
307,2008650,환경부,군위군(무성리),Gunwigun(Museongri),낙동강,위천,경상북도 군위군 군위읍 무성리 821-2,128.564167,36.193889
308,2008665,환경부,의성군(동부교),Uiseonggun(Dongbugyo),낙동강,위천,경상북도 의성군 비안면 장춘리 965-1(동부교),128.499722,36.324444
309,2008690,환경부,의성군(위중리),Uiseonggun(Wijungri),낙동강,위천,경상북도 의성군 단밀면 위중리 681-1,128.396944,36.359722
310,2009618,환경부,의성군(낙단보상),Uiseonggun(NakdanboUP),낙동강,낙동강,경상북도 의성군 단밀면 생송리 1668-131,128.308611,36.359722
311,2009620,환경부,의성군(낙단교),Uiseonggun(Nakdangyo),낙동강,낙동강,경상북도 의성군 단밀면 낙정리 806 (낙단교),128.301111,36.3575
312,2009670,환경부,구미시(일선교),Gumisi(Ilseongyo),낙동강,낙동강,경상북도 구미시 도개면 신림리 775 (일선교),128.342778,36.273056
313,2009680,환경부,구미시(구미보상),Gumisi(GumiboUP),낙동강,낙동강,경상북도 구미시 선산읍 독동리 산98,128.341944,36.237778
314,2009682,환경부,구미시(구미보하),Gumisi(GumiboDN),낙동강,낙동강,경상북도 구미시 해평면 낙산리 387-12,128.348056,36.236667
315,2010620,수자원공사,김천시(지좌리),Gimcheonsi(Jijwari),낙동강,부항천,경상북도 김천시 부항면 지좌리 470-2,127.968333,35.981944
316,2010623,수자원공사,김천시(도곡리),Gimcheonsi (Dogokri),낙동강,부항천,경상북도 김천시 지례면 도곡리 531,128.013889,35.9775
317,2010625,수자원공사,김천시(김천부항댐),Gimcheonsi(Gimcheonbuhangdam),낙동강,부항천,경상북도 김천시 부항면 유촌리 산44-9,128.004444,35.9825
318,2010630,수자원공사,김천시(교리),Gimcheonsi(Gyori),낙동강,감천,경상북도 김천시 지례면 교리 504-57,128.032222,35.988333
319,2010635,환경부,김천시(지품교),Gimcheonsi(Jipumgyo),낙동강,감천,경상북도 김천시 구성면 상원리 234-21 (지품교),128.041111,36.025556
320,2010650,환경부,김천시(김천교),Gimcheonsi(Gimcheongyo),낙동강,감천,경상북도 김천시 지좌동 1046-1 (김천교),128.130556,36.119167
321,2010660,환경부,김천시(대동교),Gimcheonsi(Daedonggyo),낙동강,감천,경상북도 김천시 개령면 서부리 669-1 (대동교),128.193056,36.163611
322,2010690,환경부,구미시(선주교),Gumisi(Seonjugyo),낙동강,감천,경상북도 구미시 선산읍 화조리 581-6 (선주교),128.308889,36.228056
323,2011625,환경부,구미시(양포교),Gumisi(Yangpogyo),낙동강,한천,경상북도 구미시 구포동 1075(양포교),128.428889,36.136111
324,2011640,환경부,구미시(구미대교),Gumisi(Gumidaegyo),낙동강,낙동강,경상북도 구미시 임수동 550-1 (구미대교),128.396667,36.110833
325,2011648,환경부,칠곡군(칠곡보상),Chilgokgun(ChilgokboUP),낙동강,낙동강,경상북도 칠곡군 약목면 관호리 산 5,128.396111,36.0175
326,2011649,환경부,칠곡군(칠곡보하),Chilgokgun(ChilgokboDN),낙동강,낙동강,경상북도 칠곡군 약목면 관호리 458-35,128.395,36.013889
327,2011650,환경부,칠곡군(호국의다리),Chilgokgun(Hogukeuidari),낙동강,낙동강,경상북도 칠곡군 왜관읍 석전리 872 (호국의다리),128.394167,36.000278
328,2011660,환경부,성주군(성주대교),Seongjugun(Seongjudaegyo),낙동강,낙동강,경상북도 성주군 선남면 선원리 5-3 (성주대교),128.390278,35.881111
329,2011665,환경부,성주군(도성교),Seongjugun(Doseonggyo),낙동강,백천,경상북도 성주군 선남면 도성리 651-5 (도성교),128.365833,35.879444
330,2011696,환경부,대구시(강정고령보하),Daegusi(GangjungGoryeongboDN),낙동강,낙동강,대구광역시 달성군 다사읍 죽곡리 806,128.465833,35.84
331,2012605,수자원공사,포항시(논골교),Pohangsi(Nongolgyo),낙동강,자호천,경상북도 포항시 북구 죽장면 지동리 논골교,129.08,36.133889
332,2012607,수자원공사,영천시(굼이교),Yeongcheonsi(Gumyigyo),낙동강,고현천,경상북도 영천시 화북면 하송리 595 굼이교,128.922778,36.149444
333,2012610,수자원공사,영천시(보현산댐),Yeongcheonsi(Bohyeonsandam),낙동강,고현천,경상북도 영천시 화북면 입석리 산2-1,128.949167,36.125833
334,2012612,수자원공사,영천시(자천교),Yeongcheonsi(Jacheongyo),낙동강,고현천,경상북도 영천시 화북면 자천리 자천교,128.919444,36.106944
335,2012615,수자원공사,영천시(영천댐),Yeongcheonsi(Youngcheondam),낙동강,자호천,경상북도 영천시 자양면 성곡리 113-2,129.012778,36.064722
336,2012625,환경부,영천시(단포교),Yeongcheonsi(Danpogyo),낙동강,자호천,경상북도 영천시 고경면 단포리 407-144 (단포교),128.968333,35.978611
337,2012628,환경부,영천시(영동교),Yeongcheonsi(Yeongdonggyo),낙동강,금호강,경상북도 영천시 완산동 1269-1 (영동교),128.938333,35.968889
338,2012632,환경부,영천시(영양교),Yeongcheonsi(Yeongyanggyo),낙동강,신령천,경상북도 영천시 쌍계동 504-1 (영양교),128.9175,35.961667
339,2012640,환경부,영천시(금창교),Yeongcheonsi(Geumchanggyo),낙동강,금호강,경상북도 영천시 금호읍 교대리 661 (금창교),128.875556,35.930556
340,2012645,환경부,봉화군(풍호리),Bonghwagun(Punghori),낙동강,낙동강,경상북도 봉화군 명호면 풍호리 산174,128.888889,36.846111
341,2012648,환경부,경산시(압량교),Gyeongsansi(Amnyanggyo),낙동강,오목천,경상북도 경산시 압량면 부적리 698 (압량교),128.766389,35.852222
342,2012650,환경부,경산시(환상리),Gyeongsansi(Hwansangri),낙동강,금호강,경상북도 경산시 하양읍 환상리 768-1 (금호3교 하류),128.779167,35.878056
343,2012652,환경부,대구시(성동교),Daegusi(Seongdonggyo),낙동강,남천,대구광역시 수성구 성동 566-1 (성동교),128.723333,35.851944
344,2012653,환경부,대구시(안심교),Daegusi(Ansimgyo),낙동강,금호강,대구광역시 동구 동호동 340-1 (안심교),128.715278,35.861667
345,2012660,환경부,대구시(신암동),Daegusi(Sinamdong),낙동강,금호강,대구광역시 동구 불로동 1107-1 (보성2차APT앞),128.634444,35.891667
346,2012665,환경부,대구시(동화교),Daegusi(Donghwagyo),낙동강,동화천,대구광역시 북구 서변동 1630-1 (동화교),128.600278,35.916389
347,2012666,환경부,대구시(노곡교),Daegusi(Nogockgyo),낙동강,금호강,대구광역시 북구 노곡동 889-2 (노곡교),128.564722,35.901944
348,2012670,환경부,대구시(산격대교),Daegusi(Sangyeokdaegyo),낙동강,금호강,대구광역시 북구 서변동 1630-1 (산격대교),128.6,35.908889
349,2012690,환경부,대구시(성북교),Daegusi(Seongbukgyo),낙동강,신천,대구광역시 북구 산격동 1519-1 (성북교),128.593056,35.893056
350,2012695,환경부,대구시(강창교),Daegusi(Gangchanggyo),낙동강,금호강,대구광역시 달서구 파호동 460 (강창교),128.471667,35.853333
351,2012696,환경부,대구시(매곡리),Daegusi(Maegokri),낙동강,낙동강,대구광역시 달성군 다사읍 매곡리 1171 (강정취수장 ?,128.446111,35.849444
352,2013611,농어촌공사,성주,Seongju,낙동강,대가천,경상북도 성주군 금수면 봉두리 101-2,128.150833,35.911389
353,2013615,환경부,성주군(가천교),Seongjugun(Gacheongyo),낙동강,대가천,경상북도 성주군 가천면 창천리 1242-1 (가천교),128.173056,35.880833
354,2013620,환경부,성주군(화죽교),Seongjugun(Hwajukgyo),낙동강,화죽천,경상북도 성주군 수륜면 수성리 341-5 (화죽교),128.179444,35.873056
355,2013630,환경부,합천군(구정리),Hapcheongun(Gujeongri),낙동강,가야천,경상남도 합천군 야로면 구정리 269-1,128.17,35.707222
356,2013640,환경부,고령군(귀원교),Goryeonggun(Gwiwongyo),낙동강,안림천,경상북도 고령군 쌍림면 매촌리 463-1 (귀원교),128.239167,35.675833
357,2013650,환경부,고령군(회천교),Goryeonggun(Hoecheongyo),낙동강,회천,경상북도 고령군 고령읍 장기리 331 (회천교),128.277778,35.729167
358,2013685,환경부,고령군(사촌리),Goryeonggun(Sachonri),낙동강,회천,경상북도 고령군 우곡면 사촌리 899-1,128.321667,35.700556
359,2013690,환경부,고령군(도진교),Goryeonggun(Dojingyo),낙동강,회천,경상북도 고령군 우곡면 야정리 971 (도진교),128.337778,35.679167
360,2014620,환경부,대구시(사문진교),Daegusi(Samunjingyo),낙동강,낙동강,대구광역시 달성군 화원읍 성산리 744-11 (사문진교),128.474167,35.812222
361,2014640,환경부,고령군(고령교),Goryeonggun(Goryeonggyo),낙동강,낙동강,경상북도 고령군 성산면 삼대리 112-3 (고령교),128.386944,35.752778
362,2014650,환경부,대구시(달성보상),Daegusi(DalsungboUP),낙동강,낙동강,경상북도 고령군 성산면 오곡리 56-3번지,128.403056,35.739444
363,2014651,환경부,고령군(달성보하),Goryeonggun(DalsungboDN),낙동강,낙동강,경상북도 고령군 개진면 인안리 18-1번지,128.416944,35.730278
364,2014660,환경부,대구시(성하리),Daegusi(Seonghari),낙동강,낙동강,대구광역시 달성군 현풍면 성하리 274 (현풍휴게소뒤),128.434167,35.702778
365,2014680,환경부,대구시(내리),Daegusi(Naeri),낙동강,낙동강,대구광역시 달성군 구지면 내리 774-5,128.403056,35.633611
366,2014690,환경부,합천군(율지교),Hapcheongun(Yuljigyo),낙동강,낙동강,경상남도 합천군 덕곡면 율지리 1 (율지교),128.358056,35.6125
367,2014697,환경부,합천군(합천창녕보상),Hapcheongun(HapcheonchangnyeongboUP),낙동강,낙동강,경상남도 창녕군 이방면 장천리 1065,128.360278,35.595
368,2014699,환경부,합천군(합천창녕보하),Hapcheongun(HapcheonchangnyeongboDN),낙동강,낙동강,경상남도 합천군 청덕면 삼학리 199-1,128.354722,35.588056
369,2015620,수자원공사,거창군(의동교),Geochanggun(Uidonggyo),낙동강,황강,경상남도 거창군 거창읍 서변리 의동교,127.925278,35.715
370,2015630,환경부,거창군(남하교),Geochanggun(Namhagyo),낙동강,황강,경상남도 거창군 남상면 월평리 855-15 (남하교),127.940278,35.671667
371,2015635,수자원공사,거창군(거열교),Geochanggun(Geoyeolgyo),낙동강,거창위천,경상남도 거창군 거창읍 상림리 거열교,127.897778,35.683056
372,2015637,수자원공사,합천군(술곡교),Hapcheongun(Sulgokgyo),낙동강,사천천,경상남도 합천군 봉산면 술곡리 술곡교,127.988611,35.580556
373,2015655,수자원공사,거창군(지산교),Geochanggun(Jisangyo),낙동강,가천천,경상남도 거창군 가조면 기리 지산교,128.014167,35.666111
374,2015680,수자원공사,합천군(합천댐),Hapcheongun(Hapcheondam),낙동강,황강,경상남도 합천군 용주면 죽죽리 산24-16,128.041944,35.557778
375,2016630,수자원공사,합천군(합천댐방수로),Hapcheongun(Hapcheondambangsuro),낙동강,황강,경상남도 합천군 용주면 가호리 553,128.067222,35.545278
376,2016635,수자원공사,합천군(합천조정지댐),Hapcheongun(Hapcheonjojeongjidam),낙동강,황강,경상남도 합천군 용주면 봉기리 산116-1,128.084722,35.540278
377,2016640,수자원공사,합천군(합천조정지방수로),Hapcheongun(Hapcheonjojeongjibangsuro),낙동강,황강,경상남도 합천군 용주면 봉기리 산116-1,128.084444,35.540278
378,2016650,환경부,합천군(남정교),Hapcheongun(Namjeonggyo),낙동강,황강,경상남도 합천군 대양면 정양리 613 (남정교),128.161667,35.5575
379,2016680,환경부,합천군(황강교),Hapcheongun(Hwangganggyo),낙동강,황강,경상남도 합천군 적중면 죽고리 922-1 (황강교),128.292778,35.571944
380,2017620,환경부,합천군(적포교),Hapcheongun(Jeokpogyo),낙동강,낙동강,경상남도 합천군 청덕면 앙진리 1 (적포교),128.359167,35.5275
381,2017630,환경부,의령군(대곡교),Uiryeonggun(Daegokgyo),낙동강,신반천,경상남도 의령군 부림면 대곡리 996 (대곡교),128.347778,35.484722
382,2017640,환경부,창녕군(유어교),Changnyeonggun(Yueogyo),낙동강,토평천,경상남도 창녕군 이방면 성산리 200-4 (유어교),128.376667,35.519722
383,2017670,환경부,의령군(여의리),Uiryeonggun(Yeouiri),낙동강,낙동강,경상남도 의령군 부림면 경산리 679 (박진교),128.375833,35.44
384,2017685,환경부,의령군(세간교),Uiryeonggun(Segangyo),낙동강,유곡천,경상남도 의령군 유곡면 세간리 29-4 (세간교),128.35,35.443333
385,2018608,수자원공사,함양군(금천리),Hamyanggun(Gumchunri),낙동강,남강,경상남도 함양군 안의면 금천리 80-2,127.815278,35.6275
386,2018609,환경부,함양군(안의교),Hamyanggun(Anuigyo),낙동강,남강,경상남도 함양군 안의면 금천리 254-1 (안의교),127.813333,35.629167
387,2018620,수자원공사,함양군(용평리),Hamyanggun(Yongpyungri),낙동강,함양위천,경상남도 함양군 함양읍 용평리 915-88,127.731389,35.513611
388,2018623,수자원공사,함양군(대웅교),Hamyanggun(Daeunggyo),낙동강,함양위천,경상남도 함양군 암양읍 백천리 대웅교,127.781667,35.514722
389,2018630,수자원공사,함양군(의탄리),Hamyanggun(Eutanri),낙동강,임천,경상남도 함양군 마천면 의탄리 1281,127.682778,35.401667
390,2018635,수자원공사,함양군(화촌리),Hamyanggun(Hwachonri),낙동강,임천,경상남도 함양군 유림면 화촌리 1074-1,127.791111,35.464444
391,2018640,환경부,산청군(고읍교),Sancheonggun(Goeupgyo),낙동강,남강,경상남도 산청군 생초면 하촌리 160-6 (고읍교),127.829722,35.490278
392,2018645,수자원공사,산청군(경호교),Sancheonggun(Gyunghogyo),낙동강,남강,경상남도 산청군 산청읍 산청리 349 경호교,127.874444,35.417778
393,2018650,수자원공사,산청군(수산교),Sancheonggun(Susangyo),낙동강,남강,경상남도 산청군 신안면 신안리 804-35 수산교,127.94,35.3375
394,2018655,수자원공사,합천군(소오리),Hapchungun(Sohori),낙동강,양천,경상남도 합천군 삼가면 소오리 451-1,128.1175,35.413889
395,2018662,환경부,산청군(소이교),Sancheong-gun(Soigyo),낙동강,신등천,경상남도 산청군 신안면 외고리 431-1 (소이교),128.0075,35.359722
396,2018665,수자원공사,산청군(하정리),Sancheonggun(Hajungri),낙동강,양천,경상남도 산청군 신안면 하정리 813-1,127.995833,35.32
397,2018673,수자원공사,산청군(원리교),Sancheonggun(wonrigyo),낙동강,덕천강,경상남도 산청군 시천면 원리 원리교,127.835833,35.276667
398,2018674,환경부,산청군(묵곡교),Sancheong-gun(Mukgokgyo),낙동강,남강,경상남도 산청군 단성면 묵곡리 140-11 (묵곡교),127.962778,35.282222
399,2018680,수자원공사,산청군(창촌리),Sancheonggun(Changchonri),낙동강,덕천강,경상남도 산청군 단성면 창촌리 산1-5,127.8925,35.269722
400,2018685,수자원공사,하동군(대곡리),Hadonggun(Daegokri),낙동강,덕천강,경상남도 하동군 옥종면 대곡리 275-2,127.920278,35.178333
401,2018690,수자원공사,진주시(내평리),Jinjusi(Naepyungri),낙동강,덕천강,경상남도 진주시 내동면 내평리 산15-1,128.021111,35.150556
402,2018692,수자원공사,사천시(검정리),Sachunsi(Gumjungri),낙동강,가화천,경상남도 사천시 곤양면 검정리 47-1,128.032778,35.080278
403,2018695,수자원공사,진주시(판문동),Jinjusi(Panmundong),낙동강,남강,경상남도 진주시 판문동 1070,128.029722,35.176389
404,2018698,수자원공사,진주시(남강댐방수로),Jinjusi(Namgangdambangsuro),낙동강,남강,경상남도 진주시 내동면 삼계리 1088,128.035,35.161667
405,2019610,환경부,고성군(두문교),Goseonggun(Dumungyo),낙동강,영천강,경상남도 고성군 영오면 오서리 1611-1 (두문교),128.190833,35.098611
406,2019615,수자원공사,진주시(장대동),Jinjusi(Jangdaedong),낙동강,남강,경상남도 진주시 장대동 356-17,128.086667,35.190278
407,2019620,환경부,함안군(송도교),Hamangun(Songdogyo),낙동강,남강,경상남도 함안군 대산면 구혜리 927-1 (송도교),128.415278,35.360833
408,2019625,환경부,진주시(옥산교),Jinjusi(Oksangyo),낙동강,영천강,경상남도 진주시 문산읍 옥산리 39-2(옥산교),128.156389,35.163333
409,2019635,환경부,진주시(덕오리),Jinjusi(Deogori),낙동강,남강,경상남도 진주시 집현면 덕오리 22-2,128.136944,35.2375
410,2019640,환경부,진주시(월강교),Jinjusi(Wolganggyo),낙동강,남강,경상남도 진주시 진성면 가진리 1718 (월강교),128.198889,35.2225
411,2019647,환경부,진주시(장박교),Jinjusi(Jangbakgyo),낙동강,남강,경상남도 진주시 지수면 청담리 1684-1 (장박교),128.272222,35.256111
412,2019653,환경부,의령군(공단교),Uiryeonggun(Gongdangyo),낙동강,의령천,경상남도 의령군 의령읍 동동리 845-2(공단교),128.268611,35.317222
413,2019655,환경부,의령군(정암교),Uiryeonggun(Jeongamgyo),낙동강,남강,경상남도 의령군 의령읍 정암리 430-43 ((구)정암교),128.295278,35.313333
414,2019680,환경부,함안군(서촌리),Hamangun(Seochonri),낙동강,함안천,경상남도 함안군 대산면 서촌리 산99-2 (악양교 하류),128.400556,35.331667
415,2019685,환경부,함안군(대사교),Hamangun(Daesagyo),낙동강,함안천,경상남도 함안군 함안면 대산리 1242-2(대사교),128.425833,35.255
416,2019695,환경부,의령군(성산리),Uiryeonggun(Seongsanri),낙동강,남강,경상남도 의령군 지정면 성산리 1106-4,128.429167,35.390833
417,2020603,환경부,밀양시(판곡교),Miryangsi(Pangokgyo),낙동강,청도천,경상남도 밀양시 무안면 죽월리 672-1 (판곡교),128.653611,35.504444
418,2020605,환경부,창녕군(강리),Changnyeonggun(Gangri),낙동강,계성천,경상남도 창녕군 장마면 강리 1085-1 (화영삼거리 부?,128.4625,35.4575
419,2020615,환경부,함안군(계내리),Hamangun(Gyenaeri),낙동강,낙동강,경상남도 함안군 칠서면 계내리 343 (진동양수장옆),128.483611,35.383333
420,2020640,환경부,함안군(소랑교),Hamangun(Soranggyo),낙동강,광려천,경상남도 함안군 칠북면 덕남리 328-4 (소랑교),128.5225,35.381389
421,2020646,환경부,함안군(창녕함안보하),Hamangun(Changnyeong·HamanboDN),낙동강,낙동강,경상남도 함안군 칠북면 봉촌리 257,128.553333,35.376944
422,2020647,환경부,창녕군(창녕함안보상),Changnyeonggun(Changnyeong·HamanboUP),낙동강,낙동강,경상남도 창녕군 길곡면 오호리 1001-1,128.550556,35.383056
423,2020650,환경부,창녕군(청암리),Changnyeonggun(Cheongamri),낙동강,낙동강,경상남도 창녕군 부곡면 청암리 1110 (청암취수장옆),128.600833,35.395556
424,2020651,환경부,밀양시(인교),Miryangsi(Ingyo),낙동강,청도천,경상남도 밀양시 초동면 오방리 682 (인교),128.651111,35.425556
425,2020675,환경부,창원시(수산대교),Changwonsi(Susandaegyo),낙동강,낙동강,경상남도 창원시 의창구 대산면 모산리 701 (수산대교,128.714167,35.365556
426,2020680,환경부,김해시(오서교),Gimhaesi(Oseogyo),낙동강,화포천,경상남도 김해시 한림면 금곡리 1015 (오서교),128.815,35.336111
427,2021610,환경부,경주시(의곡교),Gyeongjusi(Uigokgyo),낙동강,동창천,경상북도 경주시 산내면 의곡리 591-40 (의곡교),129.0475,35.758611
428,2021612,수자원공사,청도군(신원교),Cheongdogun(Sinwongyo),낙동강,운문천,경상북도 청도군 운문면 오진리 신원1교,128.961944,35.688333
429,2021620,수자원공사,청도군(운문댐),Cheongdogun(Unmundam),낙동강,동창천,경상북도 청도군 운문면 대천리 114,128.915556,35.723056
430,2021625,수자원공사,청도군(임당리),Cheongdogun(Imdangri),낙동강,동창천,경상북도 청도군 금천면 임당리 990-1,128.916389,35.705833
431,2021630,수자원공사,청도군(당호리),Cheongdogun(Danghori),낙동강,동창천,경상북도 청도군 매전면 당호리 558,128.866667,35.673333
432,2021635,수자원공사,경주시(매곡교),Gyeongjusi(Magokgyo),낙동강,동창천,경상북도 경주시 산내면 신원리 매곡교,128.983611,35.76
433,2021640,환경부,청도군(원리),Cheongdogun(Wonri),낙동강,청도천,경상북도 청도군 청도읍 원리 988-1,128.762778,35.619722
434,2021650,수자원공사,양산시(대리),Yangsansi(Daeri),낙동강,단장천,경상남도 양산시 원동면 대리 995,128.980833,35.479167
435,2021660,수자원공사,밀양시(밀양댐),Miryangsi(Miryangdam),낙동강,단장천,경상남도 밀양시 단장면 고례리 산309,128.934444,35.481667
436,2021665,환경부,밀양시(상동교),Miryangsi(Sangdonggyo),낙동강,밀양강,경상남도 밀양시 상동면 옥산리 141-2 (상동교),128.764722,35.563611
437,2021670,환경부,밀양시(금곡리),Miryangsi(Geumgokri),낙동강,단장천,경상남도 밀양시 산외면 금곡리 83-8 (금곡교 하류),128.839167,35.508889
438,2021675,환경부,밀양시(용평동),Miryangsi(Yongpyeongdong),낙동강,밀양강,경상남도 밀양시 용평동 963 (활성교 상류),128.779167,35.494167
439,2021677,환경부,밀양시(남천교),Miryangsi(Namcheongyo),낙동강,밀양강,경상남도 밀양시 삼문동 377 (남천교),128.746944,35.489167
440,2021685,환경부,밀양시(남포동),Miryangsi(Nampodong),낙동강,밀양강,경상남도 밀양시 남포동 408,128.785556,35.461389
441,2021690,환경부,밀양시(삼상교),Miryangsi(Samsanggyo),낙동강,밀양강,경상남도 밀양시 삼랑진읍 미전리 894-15 (삼상교),128.795,35.411389
442,2022610,환경부,밀양시(삼랑진교),Miryangsi(Samnangjin),낙동강,낙동강,경상남도 밀양시 삼랑진읍 삼랑리 854 (삼랑진교),128.821667,35.382778
443,2022640,환경부,김해시(월촌리),Gimhaesi(Wolchonri),낙동강,낙동강,경상남도 김해시 대동면 월촌리 988,128.994167,35.289444
444,2022655,환경부,양산시(효충교),Yangsansi(Hyochunggyo),낙동강,양산천,경상남도 양산시 상북면 소토리 1287-47 (효충교),129.046944,35.380556
445,2022660,환경부,양산시(양산교),Yangsansi(Yangsangyo),낙동강,양산천,경상남도 양산시 신기동 600 (양산교),129.036111,35.3575
446,2022670,환경부,양산시(호포대교),Yangsansi(Hopodaegyo),낙동강,양산천,경상남도 양산시 물금읍 증산리 136-4 (호포대교),129.013056,35.288889
447,2022680,환경부,부산시(구포대교),Busansi(Gupodaegyo),낙동강,낙동강,부산광역시 북구 구포동 1065-1 (구포대교),128.993333,35.203611
448,2022685,환경부,김해시(정천교),Gimhaesi(Jeongcheongyo),서낙동강,조만강,경상남도 김해시 명법동 1118 (정천교),128.833611,35.205556
449,2022696,수자원공사,부산시(낙동강하구언(내)),Busansi(Nakdongganghagueon(in)),낙동강,낙동강,부산광역시 사하구 하단동 1149-9,128.948333,35.108611
450,2022697,수자원공사,부산시(낙동강하구언(외)),Busansi(Nakdongganghagueon(out)),낙동강,낙동강,부산광역시 사하구 하단동 1149-9,128.948333,35.109444
451,2101610,환경부,경주시(망성교),Gyeongjusi(Mangseonggyo),형산강,형산강,경상북도 경주시 배동 1125-152(망성교),129.200556,35.788056
452,2101620,환경부,경주시(효현교),Gyeongjusi(Hyohyeongyo),형산강,대천,경상북도 경주시 효현동 1125-31(효현교),129.178333,35.815
453,2101625,환경부,경주시(서천교),Gyeongjusi(Seocheongyo),형산강,형산강,경상북도 경주시 서악동 1491-1 (서천교),129.201389,35.838056
454,2101650,환경부,경주시(모아리),Gyeongjusi(Moari),형산강,형산강,경상북도 경주시 천북면 모아리 848,129.240278,35.921111
455,2101668,환경부,경주시(달성교),Gyeongjusi(Dalseonggyo),형산강,기계천,경상북도 경주시 안강읍 노당리 1503 (달성교),129.238333,36.051944
456,2101672,수자원공사,경주시(안계댐),Gyeongjusi(Angyedam),형산강,기계천,경상북도 경주시 강동면 안계리 산78-1,129.267222,36.008333
457,2101675,환경부,경주시(강동대교),Gyeongjusi(Gangdongdaegyo),형산강,형산강,경상북도 경주시 강동면 오금리 1046-1 (강동대교),129.263611,35.981111
458,2101680,환경부,경주시(국당리),Gyeongjusi(Gukdangri),형산강,형산강,경상북도 경주시 강동면 국당리 산92,129.296111,35.994167
459,2101690,환경부,포항시(형산교),Pohangsi(Hyeongsangyo),형산강,형산강,경상북도 포항시 남구 해도동 229 ((신)형산교),129.371944,36.011667
460,2201610,수자원공사,울산시(대곡댐),Ulsansi(Daegokdam),태화강,대곡천,울산광역시 울주군 두동면 천전리 산82,129.173333,35.620556
461,2201611,환경부,울산시(구수교),Ulsansi(Gusugyo),태화강,태화강,울산광역시 울주군 언양읍 반송리 1044-91(구수교),129.150833,35.548333
462,2201613,수자원공사,울산시(대암교),Ulsansi(Daeamgyo),태화강,태화강,울산광역시 울주군 언양읍 반천리 1023-45,129.183611,35.549167
463,2201614,수자원공사,울산시(왕방교),Ulsansi(Wangbanggyo),태화강,보은천,울산광역시 울주군 삼동면 하잠리 왕방교,129.155556,35.514722
464,2201615,수자원공사,울산시(대암댐),Ulsansi(Daeamdam),태화강,둔기천,울산광역시 울주군 언양읍 구수리 산 189-2,129.181111,35.543611
465,2201617,수자원공사,울산시(반구교),Ulsansi(Bangugyo),태화강,대곡천,울산광역시 울주군 두동면 천전리 반구교,129.170556,35.608889
466,2201625,수자원공사,울산시(사연댐),Ulsansi(Sayeondam),태화강,대곡천,울산광역시 울주군 범서읍 사연리 산 93-2,129.194722,35.579722
467,2201630,환경부,울산시(사연교),Ulsansi(Sayeongyo),태화강,태화강,울산광역시 울주군 범서읍 사연리 703-1 (사연교),129.204444,35.572222
468,2201640,환경부,울산시(선바위교),Ulsansi(Seonbawigyo),태화강,태화강,울산광역시 울주군 범서읍 입암리 26-10 (선바위교),129.235278,35.577778
469,2201653,환경부,울산시(구영교),Ulsansi(Guyeonggyo),태화강,태화강,울산광역시 울주군 범서읍 구영리 286-5 (구영교),129.246667,35.561944
470,2201660,환경부,울산시(삼호교),Ulsansi(Samhogyo),태화강,태화강,울산광역시 남구 무거동 1035-1 (삼호교),129.275278,35.553889
471,2201670,환경부,울산시(태화교),Ulsansi(Taehwagyo),태화강,태화강,울산광역시 중구 성남동 337 (태화교),129.309167,35.5525
472,2201685,환경부,울산시(신답교),Ulsansi(Sindapgyo),태화강,동천,울산광역시 북구 상안동 320-1 (신답교),129.346667,35.629722
473,2201690,환경부,울산시(병영교),Ulsansi(Byeongyeonggyo),태화강,동천,울산광역시 북구 진장동 1028 (병영교),129.351944,35.576667
474,2301630,환경부,울산시(통천교),Ulsansi(Tongcheongyo),회야강,회야강,울산광역시 울주군 웅촌면 통천리 881-1 (통천교 상류,129.239167,35.47
475,2301640,수자원공사,울산시(선암댐),Ulsansi(Seonamdam),낙동강동해,-,울산광역시 남구 선암동 236,129.330833,35.516667
476,2301650,환경부,울산시(동천1교),Ulsansi(Dongcheon1gyo),회야강,회야강,울산광역시 울주군 온양읍 망양리 725-1 (동천1교),129.290833,35.460833
477,2301670,환경부,울산시(덕신교),Ulsansi(Deoksingyo),회야강,회야강,울산광역시 울주군 온산읍 덕신리 980-1 (덕신교),129.304167,35.434167
478,2302650,환경부,부산시(원동교),Busansi(Wondonggyo),낙동강동해,수영강,부산광역시 해운대구 반여동 1475-8 (원동교),129.114167,35.193889
479,2302695,수자원공사,부산시(신평동),Busansi(Sinpyeongdong),낙동강,낙동강,부산광역시 사하구 신평동 1,128.953889,35.091111
480,2401620,수자원공사,울진군(구산리),Uljingun(Gusanri),낙동강동해,왕피천,경상북도 울진군 근남면 구산리 450-4,129.373056,36.951944
481,2401650,환경부,울진군(수산교),Uljingun(Susangyo),낙동강동해,왕피천,경상북도 울진군 근남면 노음리 322-2 (수산교),129.398056,36.965833
482,2401690,환경부,영덕군(인량교),Yeongdeokgun(Illyanggyo),낙동강동해,송천,경상북도 영덕군 영해면 원구리 390-3 (인량교),129.3775,36.548889
483,2402620,수자원공사,영덕군(대지리),Yeongdeokgun(Daejiri),낙동강동해,대서천,경상북도 영덕군 달산면 대지리 881-13,129.3075,36.393056
484,2402630,환경부,영덕군(영덕대교),Yeongdeokgun(Yeongdeokdaegyo),영덕오십천,영덕오십천,경상북도 영덕군 영덕읍 남산리 875 ((구)영덕대교),129.373333,36.4025
485,2403610,수자원공사,경주시(감포댐),Gyeongjusi(Gampodam),낙동강동해,대중천,경상북도 경주시 감포읍 오류리 산 16-2,129.509444,35.835
486,2503620,수자원공사,거제시(연초댐),Geojesi(Yeonchodam),낙동강남해,연초천,경상남도 거제시 연초면 덕치리 산25-1,128.666667,34.939722
487,2503625,수자원공사,거제시(죽전교),Geojesi(Jukjeongyo),낙동강남해,연초천,경상남도 거제시 동부면 죽토리 1093-6,128.514444,34.843333
488,2503640,수자원공사,거제시(구천댐),Geojesi(Gucheondam),낙동강남해,구천천,경상남도 거제시 동부면 구천리 산10,128.635278,34.823611
489,2503650,수자원공사,거제시(구천교),Geojesi(Gugheongyo),낙동강남해,구천천,경상남도 거제시 동부면 구천리 105-11,128.635556,34.813889
490,3001605,환경부,장수군(운곡교),Jangsu-gun(Ungokgyo),금강,금강,전라북도 장수군 천천면 삼고리 운곡교,127.530833,35.721389
491,3001610,환경부,장수군(장계제2교),Jangsu-gun(Janggyeje2gyo),금강,장계천,전라북도 장수군 장계면 장계리 장계제2교,127.583056,35.730278
492,3001620,수자원공사,장수군(연화교),Jangsugun(Yeonhwagyo),금강,금강,전라북도 장수군 천천면 연평리 2222-15,127.527222,35.788611
493,3001630,수자원공사,진안군(송대교),Jinangun(Songdaegyo),금강,진안천,전라북도 진안군 진안읍 운산리 송대교,127.454444,35.810833
494,3001640,수자원공사,진안군(성산리),Jinangun(Seongsanri),금강,구량천,전라북도 진안군 동향면 성산리 산193,127.544167,35.833056
495,3001660,수자원공사,진안군(석정교),Jinangun(Seokjeonggyo),금강,정자천,전라북도 진안군 정천면 월평리 석정교,127.4375,35.857778
496,3001690,수자원공사,진안군(용담댐),Jinangun(Yongdamdam),금강,금강,전라북도 진안군 안천면 삼락리,127.527222,35.943611
497,3001695,수자원공사,진안군(용담댐방수로),Jinangun(Yongdamdambangsuro),금강,금강,전라북도 진안군 안천면 삼락리,127.525556,35.945833
498,3002630,수자원공사,진안군(신용담교),Jinangun(Sinyongdamdamgyo),금강,금강,전라북도 진안군 안천면 삼락리,127.525278,35.951667
499,3002650,환경부,진안군(감동교),Jinan-gun(Gamdonggyo),금강,금강,전라북도 진안군 용담면 송풍리 감동교,127.534722,35.970833
500,3002655,환경부,무주군(대티교),Muju-gun(Daetigyo),금강,금강,전라북도 무주군 부남면 굴암리 대티교,127.5775,35.993889
501,3003620,환경부,무주군(신촌농2교),Muju-gun(Sinchonnong2gyo),금강,무주남대천,전라북도 무주군 설천면 소천리 신촌농2교,127.795278,36.005556
502,3003660,환경부,무주군(여의교),Muju-gun(Yeouigyo),금강,무주남대천,전라북도 무주군 무주읍 장백리 여의교,127.711667,36.035833
,,,,,,,(충청북도 영?,,
503,3003680,환경부,무주군(취수장),Muju-gun(Chwisujang),금강,무주남대천,전라북도 무주군 무주읍 읍내리 무주상수도취수장,127.673889,36.008889
504,3004620,수자원공사,금산군(적벽교),Geumsangun(Jeokbyeokgyo),금강,금강,충청남도 금산군 부리면 수통1길 12,127.593333,36.048889
505,3004637,환경부,금산군(황풍교),Geumsan-gun(Hwangpunggyo),금강,봉황천,충청남도 금산군 남일면 황풍리 960-21,127.5075,36.081667
506,3004640,환경부,금산군(제원대교),Geumsan-gun(Jewondaegyo),금강,금강,충청남도 금산군 제원면 저곡리 제원대교,127.567222,36.111111
,,,,,,,(충청남도 ?,,
507,3004645,환경부,금산군(음대교),Geumsan-gun(eumdaegyo),금강,봉황천,충청남도 금산군 남일면 음대리 음대교,127.502222,36.03
,,,,,,,(충청남도 금?,,
508,3004650,수자원공사,영동군(호탄리),Yeongdonggun(Hotanri),금강,금강,충청북도 영동군 양산면 호탄리 산15-1,127.649722,36.131667
509,3004680,환경부,영동군(영동제2교),Yeongdong-gun(Yeongdongje2gyo),금강,영동천,충청북도 영동군 영동읍 계산리 영동제2교,127.773333,36.177778
510,3004685,환경부,영동군(초강교),Yeongdong-gun(choganggyo),금강,영동천,충청북도 영동군 심천면 초강리 (구)초강교,127.715833,36.211111
511,3004690,환경부,영동군(양강교),Yeongdong-gun(Yangganggyo),금강,금강,충청북도 영동군 심천면 고당리 양강교,127.707778,36.211944
512,3005670,환경부,영동군(금상교),Yeongdong-gun(Guemsanggyo),금강,초강,충청북도 영동군 황간면 마산리 555 금상교,127.910278,36.225278
513,3005675,환경부,영동군(백화교),Yeongdong-gun(Baekhwagyo),금강,석천,충청북도 영동군 황간면 우매리 백화교,127.896667,36.259722
514,3005680,수자원공사,영동군(율리),Yeongdonggun(Yulri),금강,초강,충청북도 영동군 용산면 율리 676-1,127.805,36.229722
515,3005690,환경부,영동군(심천교),Yeongdong-gun(Simcheongyo),금강,초강,충청북도 영동군 심천면 심천리 심천교,127.721667,36.230556
516,3006680,수자원공사,옥천군(이원대교),Okcheongun(Iwondaegyo),금강,금강,충청북도 옥천군 이원면 원동리 241-1,127.668611,36.240278
517,3007610,환경부,보은군(산성교),Boeun-gun(Sanseonggyo),금강,보청천,충청북도 보은군 보은읍 산성리 산성교,127.718333,36.520278
518,3007620,환경부,보은군(이평교),Boeun-gun(Ipyeonggyo),금강,보청천,충청북도 보은군 보은읍 이평리 이평교,127.7225,36.489444
,,,,,,,(충청북도 보?,,
519,3007640,환경부,보은군(탄부교),Boeun-gun(Tanbugyo),금강,삼가천,충청북도 보은군 탄부면 임한리 탄부교,127.811667,36.437222
520,3007645,환경부,보은군(대양교),Boeun-gun(Daeyanggyo),금강,보청천,충청북도 보은군 탄부면 대양리 대양교,127.798056,36.420833
521,3007650,환경부,보은군(기대교),Boeun-gun(Gidaegyo),금강,보청천,충청북도 보은군 마로면 기대리 기대교,127.820833,36.415833
522,3007660,환경부,옥천군(산계교),Okcheon-gun(Sangyegyo),금강,보청천,충청북도 옥천군 청성면 산계리 산계교,127.758056,36.317222
523,3007670,수자원공사,옥천군(산계리),Okcheongun(Sangyeri),금강,보청천,충청북도 옥천군 청성면 산계리 산62,127.735278,36.313611
524,3008630,환경부,옥천군(옥각교),Okcheon-gun(Okgakgyo),금강,소옥천,충청북도 옥천군 옥천읍 옥각리 458-6 옥각교,127.555,36.3175
525,3008670,환경부,금산군(제원교),Geumsan-gun(Jewongyo),금강,봉황천,충청남도 금산군 제원면 저곡리 639-1,127.552778,36.111667
526,3008680,수자원공사,대전시(대청조정지댐),Daejeonsi(Daecheongjojeongjidam),금강,금강,대전시 대덕구 대청로 251(용호동),127.4525,36.448889
527,3008685,수자원공사,청주시(대청댐방수로),Cheongjusi(Daecheongdambangsuro),금강,금강,충청북도 청주시 상당구 문의면 덕유리 노산하석로458,127.479444,36.477778
528,3008690,수자원공사,청주시(대청댐),Cheongjusi(Daecheongdam),금강,금강,충청북도 청주시 상당구 문의면 덕유리 노산하석로458,127.480278,36.478333
529,3008695,환경부,대전시(금강1교),Daejeon-si(Geumgang1gyo),금강,금강,대전광역시 대덕구 석봉동 금강1교,127.416667,36.454722
,,,,,,,(충청북도 청원군,,
530,3009620,환경부,금산군(문암교),Geumsan-gun(munamgyo),금강,유등천,충청남도 금산군 복수면 신대리 문암교,127.377778,36.225
531,3009630,환경부,대전시(복수교),Daejeon-si(Boksugyo),금강,유등천,대전광역시 서구 복수동 복수교 (대전광역시 중구 사?,127.384444,36.299167
532,3009640,환경부,대전시(인창교),Daejeon-si(Inchanggyo),금강,대전천,대전광역시 동구 인동 인창교 (대전광역시 중구 문창?,127.434444,36.323611
533,3009645,환경부,대전시(철갑교),Daejeon-si(Cheolgapgyo),금강,대동천,대전광역시 동구 소제동 철갑교,127.438056,36.335
534,3009650,환경부,대전시(용촌교),Daejeon-si(Yongchongyo),금강,갑천,대전광역시 서구 용촌동 용촌교,127.316111,36.2475
535,3009655,환경부,대전시(두계교),Daejeon-si(Dugyegyo),금강,두계천,대전광역시 유성구 방동 두계교,127.278889,36.266389
,,,,,,,(충청남도 계룡시 두,,
536,3009665,환경부,대전시(가수원교),Daejeon-si(Gasuwongyo),금강,갑천,대전광역시 서구 가수원동 가수원교,127.358889,36.306667
537,3009670,환경부,대전시(만년교),Daejeon-si(Mannyeongyo),금강,갑천,대전광역시 서구 월평동 만년교,127.349722,36.351667
,,,,,,,(대전광역시 유성구,,
538,3009673,환경부,대전시(한밭대교),Daejeon-si(Hanbatdaegyo),금강,유등천,대전광역시 서구 둔산동 한밭대교,127.403056,36.356944
,,,,,,,(대전광역시 대덕?,,
539,3009675,환경부,대전시(대덕대교),Daejeon-si(Daedeokdaegyo),금강,갑천,대전광역시 유성구 도룡동 대덕대교,127.379722,36.373333
,,,,,,,(대전광역시 서?,,
540,3009680,환경부,대전시(원촌교),Daejeon-si(Wonchongyo),금강,갑천,대전광역시 대덕구 대화동 원촌교,127.41,36.378333
,,,,,,,(대전광역시 유성?,,
541,3009693,환경부,대전시(신구교),Daejeon-si(Singugyo),금강,갑천,대전광역시 유성구 봉산동 신구교,127.393333,36.437222
,,,,,,,(대전광역시 대덕?,,
542,3009698,환경부,대전시(봉산동),Daejeon-si(Bongsan-dong),금강,갑천,대전광역시 유성구 봉산동 53,127.394444,36.451389
543,3010620,환경부,세종시(노호리),Sejong-si(Noho-ri),금강,금강,세종특별자치시 부강면 노호리 423,127.395556,36.492778
544,3010660,환경부,세종시(명학리),Sejong-si(Myeonghak-ri),금강,금강,세종특별자치시 연동면 명학리 963,127.3575,36.52
545,3011615,환경부,진천군(신정교),Jincheon-gun(Sinjeonggyo),금강,백곡천,충청북도 진천군 진천읍 신정리 신정교,127.462222,36.855
,,,,,,,(충청북도 진?,,
546,3011617,환경부,진천군(금곡교),Jincheon-gun(Geumgokgyo),금강,초평천,충청북도 진천군 초평면 용정리 금곡교,127.531667,36.846667
547,3011620,환경부,진천군(가산교),Jincheon-gun(Gasangyo),금강,미호천,충청북도 진천군 덕산면 인산리 가산교,127.477222,36.876389
548,3011623,환경부,진천군(인산리),Jincheon-gun(Insan-ri),금강,한천,충청북도 진천군 덕산읍 인산리 1266-1,127.505556,36.866111
549,3011624,환경부,진천군(오갑교),Jincheon-gun(Ogapgyo),금강,미호천,충청북도 진천군 초평면 오갑리 오갑교,127.503333,36.845556
,,,,,,,(충청북도 진?,,
550,3011625,환경부,증평군(반탄교),Jeungpyeong-gun(Bantangyo),금강,보강천,충청북도 증평군 증평읍 초중리 반탄교,127.572222,36.783889
551,3011630,환경부,청주시(여암교),Cheongju-si(Yeoamgyo),금강,미호천,충청북도 청주시 청원구 오창읍 여천리 여암교,127.509722,36.771944
,,,,,,,(충청?,,
552,3011635,환경부,청주시(팔결교),Cheongju-si(Palgyeolgyo),금강,미호천,충청북도 청주시 청원구 외하동 팔결교,127.475556,36.714167
,,,,,,,(충청북도 청,,
553,3011641,환경부,청주시(노동교),Cheongju-si(Nodonggyo),금강,무심천,충청북도 청주시 가덕면 노동리 471-1 노동교,127.532222,36.551944
554,3011643,환경부,청주시(용평교),Cheongju-si(Yongpyeonggyo),금강,무심천,충청북도 청주시 흥덕구 분평동 용평교,127.497222,36.611667
555,3011645,환경부,청주시(흥덕교),Cheongju-si(Heungdeokgyo),금강,무심천,충청북도 청주시 흥덕구 운천동 흥덕교,127.481389,36.646667
556,3011650,환경부,천안시(장산교),Cheonan-si(Jangsangyo),금강,병천천,충청남도 천안시 수신면 장산리 장산교,127.296944,36.740278
557,3011660,환경부,청주시(환희교),Cheongju-si(Hwanhuigyo),금강,병천천,충청북도 청주시 청원구 옥산면 환희리 72-1,127.361667,36.674444
558,3011665,환경부,청주시(미호천교),Cheongju-si(Mihocheongyo),금강,미호천,충청북도 청주시 흥덕구 강내면 탑연리 미호천교,127.350556,36.623056
,,,,,,,(충?,,
559,3011675,환경부,세종시(상조천교),Sejong-si(Sangjocheongyo),금강,조천,세종특별자치시 조치원읍 신안리 상조천교,127.287778,36.636111
,,,,,,,(충청북도,,
560,3011685,환경부,세종시(미호교),Sejong-si(Mihogyo),금강,미호천,충청북도 청주시 흥덕구 오송읍 미호교,127.316389,36.5825
,,,,,,,(세종특별자?,,
561,3011687,환경부,세종시(월암교),Sejong-si(Wolamgyo),금강,월하천,세종특별자치시 연서면 봉암리 월암교,127.288333,36.570833
,,,,,,,(세종특별자치?,,
562,3011695,환경부,세종시(월산교),Seojong-si(Wolsangyo),금강,미호천,세종특별자치시 연기면 세종리 23-3,127.319167,36.525556
563,3012602,환경부,세종시(햇무리교),Sejong-si(hattmurigyo),금강,금강,세종특별자치시 연기면 세종리 햇무리교,127.299167,36.499167
564,3012605,환경부,세종시(금남교),Sejong-si(Geumnamgyo),금강,금강,세종특별자치시 연기면 세종리 금남교,127.270833,36.477778
565,3012607,환경부,세종시(도암교),Sejong-si(Doamgyo),금강,용수천,세종특별자치시 금남면 도암리 도암교,127.285,36.446667
566,3012608,환경부,세종시(세종보하),Sejong-si(SejongboHa),금강,금강,세종특별자치시 연기면 세종리 학나래교,127.258333,36.469444
567,3012609,환경부,세종시(산봉교),Sejong-si(Sanbonggyo),금강,대교천,세종특별자치시 장군면 봉안리 산봉교,127.239444,36.477778
568,3012612,환경부,공주시(마암리),Gongju-si(Maam-ri),금강,금강,충청남도 공주시 반포면 마암리(산 96-8번지 주변),127.208889,36.435
569,3012620,환경부,공주시(금강교),Gongju-SI(Geumganggyo),금강,금강,충청남도 공주시 금성동 금강교,127.124722,36.467222
570,3012625,환경부,공주시(오인교),Gongju-si(Oingyo),금강,정안천,충청남도 공주시 의당면 요룡리 오인교,127.126944,36.5275
571,3012630,수자원공사,공주시(평소리),Gongjusi(Pyeongsori),금강,유구천,충청남도 공주시 신풍면 평소리 272-3,126.988333,36.516389
572,3012633,환경부,공주시(공주보상),Gongju-si(GongjuboSang),금강,금강,충청남도 공주시 우성면 평목리 87,127.098611,36.465
573,3012634,환경부,공주시(공주보하),Gongju-si(GongjuboHa),금강,금강,충청남도 공주시 우성면 평목리 87,127.096111,36.460833
574,3012635,환경부,공주시(국재교),Gongju-si(Gukjaegyo),금강,유구천,충청남도 공주시 사곡면 화월리 국재교,127.043056,36.482222
575,3012650,환경부,청양군(신흥리),Cheongyang-gun(Sinheung-ri),금강,금강,충청남도 청양군 목면 신흥리(46-1번지 주변),127.022778,36.397778
576,3012655,환경부,청양군(지천교),Cheongyang-gun(Gicheongyo),금강,지천,충청남도 청양군 청양읍 적누리 지천교,126.790833,36.428611
,,,,,,,(충청남도 청?,,
577,3012662,환경부,청양군(백제보상),Cheongyang-gun(BaekjeboSang),금강,금강,충청남도 청양군 청남면 왕진리 77,126.954167,36.328056
578,3012664,환경부,부여군(백제보하),Buyeo-gun(BaekjeboHa),금강,금강,충청남도 부여군 부여읍 정동리 산14-1,126.935556,36.316111
579,3012665,환경부,부여군(지천교),Buyeo-gun(Jicheongyo),금강,지천,충청남도 부여군 은산면 회곡리 지천교,126.858889,36.326111
580,3012674,환경부,부여군(송학교),Buyeo-gun(Songhakgyo),금강,금천,충청남도 부여군 남면 송학리 송학교,126.801389,36.221667
581,3012675,환경부,부여군(백제교),Buyeo-gun(Baekjegyo),금강,금강,충청남도 부여군 규암면 규암리 백제교,126.891667,36.275833
,,,,,,,(충청남도 부?,,
582,3012680,환경부,부여군(석동교),Buyeo-gun(Seokdonggyo),금강,금천,충청남도 부여군 장암리 석동리 석동교,126.884167,36.2475
583,3012681,환경부,논산시(석성천교),Nonsan-si(Seokseongcheongyo),금강,석성천,충청남도 논산시 광석면 득윤리 석성천교,127.032222,36.235556
,,,,,,,(충청남도,,
584,3012685,환경부,부여군(반조원리),Buyeo-gun(Banjowon-ri),금강,금강,충청남도 부여군 세도면 반조원리 549,126.976111,36.196389
585,3012690,환경부,논산시(동성교),Nonsan-si(Dongseonggyo),금강,석성천,충청남도 논산시 성동면 우곤리 동성교,127.006667,36.21
,,,,,,,(충청남도 부,,
586,3013605,환경부,논산시(인천교),Nonsan-si(Incheongyo),금강,논산천,충청남도 논산시 양촌면 인천리 인천교,127.235833,36.136944
587,3013665,환경부,논산시(풋개다리),Nonsan-si(Putgaedari),금강,노성천,충청남도 논산시 광석면 항월리,127.13,36.233611
588,3013670,환경부,논산시(논산대교),Nonsan-si(Nonsandaegyo),금강,논산천,충청남도 논산시 대교동 논산대교,127.080278,36.209722
589,3013685,환경부,논산시(제내교),Nonsan-si(Jenaegyo),금강,강경천,충청남도 논산시 채운면 채운리 제내교,127.0375,36.143889
590,3014610,환경부,논산시(황산대교),Nonsan-si(Hwangsandaegyo),금강,금강,충청남도 논산시 강경면 황산리 황산대교,127.007222,36.153889
,,,,,,,(충청남도,,
591,3014650,환경부,부여군(입포리),Buyeo-gun(Ippo-ri),금강,금강,충청남도 부여군 양화면 입포리 209-9,126.883333,36.135
592,3014670,환경부,서천군(옥포리),Seocheon-gun(Okpo-ri),금강,금강,충청남도 서천군 화양면 옥포리 528-8,126.781389,36.036111
593,3014680,환경부,서천군(북원교),Seocheon-gun(Bukwongyo),금강,길산천,충청남도 서천군 기산면 원길리 북원교,126.730833,36.074444
594,3014690,농어촌공사,금강(내),Gumgang(Nae),금강,금강,전북 군산시 성산면 철새로 45번지(금강하구둑),126.751667,36.013611
595,3014695,농어촌공사,금강(외),Gumgang(Weo),금강,금강,전북 군산시 성산면 철새로 45번지(금강하구둑),126.758056,36.009722
596,3101604,환경부,예산군(은사교),Yesan-gun(Eunsagyo),삽교천,무한천,충청남도 예산군 광시면 용두리 은사교,126.778611,36.560556
597,3101613,환경부,예산군(서계양교),Yesan-gun(Seogyeyanggyo),삽교천,신양천,충청남도 예산군 신양면 녹문리 서계양교,126.86,36.606389
598,3101625,환경부,예산군(예산대교),Yesan-gun(Yesandaegyo),삽교천,무한천,충청남도 예산군 예산읍 산성리 예산대교,126.820833,36.684167
599,3101630,환경부,예산군(신례원교),Yesan-gun(Sillyewongyo),삽교천,무한천,충청남도 예산군 신암면 종경리 신례원교,126.83,36.733056
600,3101635,환경부,홍성군(삽교천교),Hongseong-gun(Sapgyocheongyo),삽교천,삽교천,충청남도 홍성군 홍성읍 구룡리 삽교천교,126.685556,36.5925
,,,,,,,(충청남도 ?,,
601,3101638,환경부,예산군(신리교),Yesan-gun(Silligyo),삽교천,덕산천,충청남도 예산군 삽교읍 신리 신리교,126.670833,36.688056
602,3101640,환경부,예산군(충의대교),Yesan-gun(Chunguidaegyo),삽교천,삽교천,충청남도 예산군 삽교읍 두리 충의대교,126.730556,36.686667
603,3101645,환경부,예산군(구만교),Yesan-gun(Gumangyo),삽교천,삽교천,충청남도 예산군 고덕면 구만리 구만교,126.754444,36.736111
,,,,,,,(충청남도 예?,,
604,3101650,환경부,당진시(구양교),Dangjin-si(Guyanggyo),삽교천,삽교천,충청남도 당진시 합덕읍 옥금리 구양교,126.815,36.774167
,,,,,,,(충청남도 예,,
605,3101655,환경부,천안시(신흥교),Cheonan-si(Sinheunggyo),삽교천,풍서천,충청남도 천안시 동남구 광덕면 매당리 신흥교,127.113889,36.702778
606,3101660,환경부,천안시(가송교),Cheonan-si(Gasonggyo),삽교천,곡교천,충청남도 천안시 풍세면 가송리 가송교,127.143611,36.735
607,3101670,환경부,아산시(휴대교),Asan-si(Hyudaegyo),삽교천,천안천,충청남도 아산시 배방면 휴대리 휴대교,127.113611,36.780833
608,3101672,환경부,아산시(덕지리),Asan-si(Deokgi-ri),삽교천,율지천,충청남도 아산시 음봉면 덕지리 524,127.083889,36.830833
609,3101673,환경부,아산시(새터교),Asan-si(Saeteogyo),삽교천,매곡천,충청남도 아산시 탕정면 호산리 새터교,127.082778,36.808056
610,3101675,환경부,아산시(한내다리),Asan-si(Hannaedari),삽교천,곡교천,충청남도 아산시 탕정면 갈산리 한내대교,127.053889,36.790278
611,3101683,환경부,아산시(온천교),Asan-si(Oncheongyo),삽교천,온양천,충청남도 아산시 신동 온천교,127.032222,36.774722
612,3101685,환경부,아산시(충무교),Asan-si(Chungmugyo),삽교천,곡교천,충청남도 아산시 염치읍 석정리 충무교,127.008333,36.797778
613,3101690,환경부,아산시(강청교),Asan-si(Gangcheonggyo),삽교천,곡교천,충청남도 아산시 염치면 가덕리 강청교,126.933611,36.821667
614,3101693,환경부,당진시(신촌리),Dangjin-si(Sinchon-ri),삽교천,삽교천,충청남도 당진시 우강면 신촌리 107-119,126.8275,36.847778
615,3201690,환경부,당진시(채운교),Dangjin-si(Chaeungyo),금강서해,역천,충청남도 당진시 우두동 채운교,126.614444,36.905
616,3203620,환경부,보령시(동대교),Boryeong-si(Dongdaegyo),금강서해,동,충청남도 보령시 동대동 동대교,126.598611,36.346667
617,3203640,수자원공사,보령시(보령댐),Boryeongsi(Boryoungdam),금강서해,웅천천,충청남도 보령시 미산면 용수리 산39-1,126.648611,36.249722
618,3203645,수자원공사,보령시(보령댐방수로),Boryeongsi(Boryoungdambangsuro),금강서해,웅천천,충청남도 보령시 미산면 용수리 산39-1,126.645,36.25
619,3203652,환경부,보령시(노천교),Boryeong-si(Nocheongyo),금강서해,웅천천,충청남도 보령시 웅천읍 노천리 노천교,126.593889,36.231111
620,3301623,환경부,완주군(마안교),Wanjugun(Maangyo),만경강,고산천,전라북도 완주군 화산면 종리 111-4,127.240833,36.008056
621,3301625,환경부,완주군(오성교),Wanjugun(Ohseonggyo),만경강,만경강,전라북도 완주군 고산면 읍내리 945-5 오성교 하류,127.215,35.973333
622,3301630,환경부,완주군(용봉교),Wanjugun(Yongbonggyo),만경강,만경강,전라북도 완주군 봉동읍 장기리 111-6 용봉교,127.170833,35.941944
623,3301635,환경부,완주군(소양용연교),Wanjugun(Soyangyongyeongyo),만경강,소양천,전라북도 완주군 소양면 황운리 212-3 소양용연교,127.2425,35.861111
624,3301640,환경부,완주군(제2소양교),Wanjugun(Je2soyanggyo),만경강,소양천,전라북도 완주군 용진면 상운리 41-18 제2소양교,127.155278,35.878056
625,3301645,환경부,완주군(하리교),Wanjugun(Harigyo),만경강,만경강,전라북도 완주군 삼례면 하리 724-1 하리교,127.098889,35.897222
626,3301652,환경부,전주시(신평교),Jeonjusi(Sinpyeonggyo),만경강,삼천,전라북도 전주시 완산구 원당동 282-5 신평교,127.116944,35.772222
627,3301654,환경부,전주시(세내교),Jeonjusi(Senaegyo),만경강,삼천,전라북도 전주시 완산구 삼천동1가 323-3 세내교,127.112222,35.7925
628,3301655,환경부,전주시(서곡교),Jeonjusi(Seogokgyo),만경강,삼천,전라북도 전주시 완산구 서신동 738-1 서곡교,127.105556,35.836389
629,3301657,환경부,전주시(서천교),Jeonjusi(Seocheongyo),만경강,전주천,전라북도 전주시완산구 서완산동1가 231-1,127.141389,35.812222
630,3301662,환경부,전주시(은석교),Jeonjusi(eunseokgyo),만경강,전주천,전라북도 전주시 완산구 색장동 151-2 은석교,127.194167,35.796944
631,3301665,환경부,전주시(미산교),Jeonjusi(Misangyo),만경강,전주천,전라북도 전주시 덕진구 전미동2가 1384-10 미산교,127.0975,35.879444
632,3301670,환경부,완주군(삼례교),Wanjugun(Samryegyo),만경강,만경강,전라북도 완주군 삼례읍 삼례리 647 삼례교 하류,127.071111,35.898333
633,3301675,환경부,익산시(인수교),Iksangun(Insugyo),만경강,익산천,전라북도 익산시 춘포면 인수리 312 인수교,127.034444,35.923056
634,3301685,환경부,익산시(만경교),Iksansi(Mangyeonggyo),만경강,만경강,전라북도 익산시 오산면 목천리 1177-5 만경교,126.931944,35.913611
635,3301688,환경부,군산시(원두교),Gunsansi(Wondugyo),만경강,탑천,전라북도 군산시 대야면 광교리 1014-1 원두교,126.856389,35.925278
636,3301690,환경부,김제시(만경대교),Gimjesi(Mangyeondaegyo),만경강,만경강,전라북도 김제시 청하면 동지산리 1100 만경대교,126.838333,35.910833
637,3302615,환경부,정읍시(행정교),Jeongeupsi(Haengjeonggyo),동진강,동진강,전라북도 정읍시 옹동면 산성리 1312 행정교,126.978333,35.615833
638,3302617,수자원공사,정읍시(종산리),Jeongeupsi(Jongsanri),만경강,평사리천,전라북도 정읍시 산외면 종산리 269,127.092778,35.592222
639,3302620,환경부,정읍시(거산교),Jeongeupsi(Geosangyo),동진강,동진강,전라북도 정읍시 태인읍 태서리 960-23 거산교,126.927222,35.648611
640,3302630,환경부,정읍시(정우교),Jeongeupsi(Jeongugyo),동진강,동진강,전라북도 정읍시 정우면 대사리 878-19 정우교,126.889167,35.676944
641,3302643,환경부,정읍시(상동교),Jeongeupsi(Sangdonggyo),동진강,정읍천,전라북도 정읍시 송산동 73-2 상동교,126.869167,35.554722
642,3302645,환경부,정읍시(죽림교),Jeongeupsi(Jukrimgyo),동진강,정읍천,전라북도 정읍시 연지동 217-5 죽림교,126.843611,35.567778
643,3302653,환경부,정읍시(정읍교),Jeongeupsi(Jeongeupgyo),동진강,정읍천,전라북도 정읍시 용계동 778-1 정읍교 하류,126.829167,35.586111
644,3302655,환경부,정읍시(정읍천대교),Jeongeupsi(Jeongeupcheondaegyo),동진강,정읍천,전라북도 정읍시 정우면 초강리 810 정읍천대교,126.864444,35.638611
645,3302657,환경부,정읍시(풍월교),Jeongeupsi(Pungwolgyo),동진강,고부천,전라북도 정읍시 영원면 풍월리 569-6,126.749167,35.645556
646,3302658,환경부,정읍시(초강리),Jeongeupsi(Chogangri),동진강,정읍천,전라북도 정읍시 정우면 초강리 819-5 정읍천대교 하?,126.862778,35.644444
647,3302660,환경부,정읍시(양전교),Jeongeupsi(Yangjeongyo),동진강,원평천,전라북도 정읍시 감곡면 삼평리 1-1,126.9075,35.747222
648,3302665,환경부,김제시(군포교),Gimjesi(Gunpogyo),동진강,동진강,전라북도 김제시 부량면 옥정리 425-4 (구)군포교,126.8175,35.717778
649,3302675,환경부,부안군(평교),Buangun(Pyeonggyo),동진강,고부천,전라북도 부안군 백산면 평교리 847 평교,126.7825,35.705556
650,3302680,환경부,김제시(용동교),Gimjesi(Yongdonggyo),동진강,두월천,전북 김제시 황산동 683-28,126.905556,35.788889
651,3302685,환경부,김제시(죽산교),Gimjesi(Juksangyo),동진강,원평천,전라북도 김제시 죽산면 죽산리 957 죽산교,126.812222,35.766667
652,4001610,환경부,진안군(좌포교),Jinangun(Jwapogyo),섬진강,섬진강,전라북도 진안군 성수면 도통리 521-5 좌포교 하류,127.318333,35.736667
653,4001620,수자원공사,임실군(호암교),Imsilgun(Hoamgyo),섬진강,섬진강,전라북도 임실군 신평면 호암리 호암교,127.240833,35.655556
654,4001660,수자원공사,순창군(운암교),Sunchanggun(Unamgyo),섬진강,추령천,전라북도 순창군 쌍치면 운암리 운암교,127.014167,35.503889
655,4002605,수자원공사,임실군(섬진강댐),Imsilgun(Seomjingangdam),섬진강,섬진강,전라북도 임실군 강진면 용수리 섬진강댐,127.110278,35.541667
656,4002610,수자원공사,임실군(회문리),Imsilgun(Hoemunri),섬진강,섬진강,전라북도 임실군 덕치면 회문리 88-5,127.137778,35.521944
657,4002640,환경부,임실군(일중리),Imsil(Iljungri),섬진강,섬진강,전라북도 임실군 덕치면 일중리 568,127.15,35.496389
658,4002690,환경부,순창군(평남리),Sunchanggun(Pyeongnamri),섬진강,섬진강,전라북도 순창군 적성면 평남리 산 119,127.215833,35.423611
659,4003650,환경부,임실군(신기교),Imsilgun(Singigyo),섬진강,오수천,전라북도 임실군 오수면 신기리 398-1 신기교,127.324722,35.507778
660,4003690,환경부,순창군(현포리),Sunchanggun(Hyunpori),섬진강,오수천,전라북도 순창군 동계면 현포리 820,127.245278,35.439444
661,4004615,환경부,순창군(유적교),Sunchanggun(Yujeokgyo),섬진강,섬진강,전라북도 순창군 적성면 고원리 928 유적교,127.209167,35.392778
662,4004630,환경부,순창군(옥천교),Sunchanggun(Okcheongyo),섬진강,경천,전라북도 순창군 순창읍 순화리 913-4 옥천교,127.133333,35.374722
663,4004640,환경부,순창군(유풍교),Sunchanggun(Yupunggyo),섬진강,경천,전라북도 순창군 풍산면 두승리 875 유풍교,127.184444,35.359167
664,4004650,환경부,곡성군(합강교),Gokseonggun(hapganggyo),섬진강,옥과천,전라남도 곡성군 옥과면 합강리 101-20 합강교,127.180556,35.321944
665,4004660,환경부,남원시(신덕리),Namwonsi(Sindeokri),섬진강,섬진강,전라북도 남원시 대강면 신덕리 190,127.216389,35.331389
666,4004690,환경부,곡성군(금곡교),Namwonsi(geumgokgyo),섬진강,섬진강,전라북도 남원시 금지면 귀석리 718-4 (구)금곡교,127.295833,35.311389
667,4005627,환경부,장수군(동화저수지),Jangsugun(Donghwajeosuji),섬진강,백운천,전라북도 장수군 번암면 죽림리 동화저수지,127.538611,35.545556
668,4005645,환경부,남원시(월석교),Namwonsi(Wolseokgyo),섬진강,요천,전라북도 남원시 산동면 월석리 222 월석교 하류,127.514444,35.497778
669,4005660,환경부,남원시(요천교),Namwonsi(Yocheongyo),섬진강,요천,전라북도 남원시 이백면 남계리 1102-1 요천교,127.436111,35.455278
670,4005670,환경부,남원시(동림교),Namwonsi(Dongrimgyo),섬진강,요천,전라북도 남원시 신촌동 460 동림교,127.391389,35.408611
671,4005690,환경부,남원시(요천대교),Namwonsi(Yocheondaegyo),섬진강,요천,전라북도 남원시 송동면 세전리 1336-77 요천대교,127.311389,35.318889
672,4006660,환경부,곡성군(고달교),Gokseonggun(Godalgyo),섬진강,섬진강,전라남도 곡성군 고달면 뇌죽리 964-2 고달교 상류,127.329722,35.294722
673,4006680,환경부,곡성군(예성교),Gokseonggun(Yeseonggyo),섬진강,섬진강,전라남도 곡성군 오곡면 압록리 330-1,127.374167,35.198611
674,4007625,수자원공사,보성군(보성강댐),Boseonggun(Boseonggangdam),섬진강,보성강,전라남도 보성군 겸백면 용산리 보성강댐,127.144722,34.805278
675,4007630,수자원공사,보성군(가장교),Boseonggun(Gajanggyo),섬진강,보성강,전라남도 보성군 겸백면 석호리 가장교,127.1475,34.831111
676,4007660,수자원공사,화순군(동복댐),Hwasungun(Dongbokdam),섬진강,동복천,전라남도 화순군 동복면 연월리 동복댐,127.102222,35.0825
677,4007670,수자원공사,화순군(용리교),Hwasungun(Yongrigyo),섬진강,동복천,전라남도 화순군 남면 용리 용리교,127.113611,35.026944
678,4007695,수자원공사,순천시(주암댐),Suncheonsi(Juamdam),섬진강,보성강,전라남도 순천시 주암면 구산리 주암댐,127.236944,35.062222
679,4008650,수자원공사,순천시(광천교),Suncheonsi(Gwangcheongyo),섬진강,보성강,전라남도 순천시 주암면 구산리 광천교,127.236944,35.076111
680,4008655,수자원공사,곡성군(목사동2교),Gokseonggun(Moksadong2gyo),섬진강,보성강,전라남도 곡성군 목사동면 공북리 목사동2교,127.256944,35.13
681,4008660,환경부,곡성군(목사동1교),Gokseonggun(Moksadong1gyo),섬진강,보성강,전라남도 곡성군 목사동면 평리 590-1 목사동1교,127.298889,35.127778
682,4008670,환경부,곡성군(태안교),Gokseonggun(Taeangyo),섬진강,보성강,전라남도 곡성군 죽곡면 유봉리 549-24 태안교,127.346667,35.160278
683,4009608,환경부,순천시(용서교),Suncheonsi(Yongseogyo),섬진강,황전천,전라남도 순천시 황전면 선변리 1142 용서교,127.463333,35.149444
684,4009610,환경부,구례군(구례교),Guryegun(Guryegyo),섬진강,섬진강,전라남도 구례군 구례읍 신월리 595-1 구례교,127.454167,35.165556
685,4009625,환경부,구례군(서시교),Guryegun(Seosigyo),섬진강,서시천,전라남도 구례군 구례읍 봉동리 574-1 서시교,127.474722,35.211111
686,4009630,환경부,구례군(송정리),Guryegun(Songjeongri),섬진강,섬진강,전라남도 구례군 토지면 송정리 639-1,127.558611,35.192222
687,4009638,환경부,하동군(가탄교),Hadonggun(Gatangyo),섬진강,화개천,경상남도 하동군 화개면 탑리 851 가탄교,127.632778,35.200278
688,4009640,환경부,광양시(남도대교),Gwangyangsi(Namdodaegyo),섬진강,섬진강,전라남도 광양시 다압면 하천리 537-5,127.626111,35.180833
689,4009650,환경부,광양시(고사리),Gwangyangsi(Gosari),섬진강,섬진강,전라남도 광양시 다압면 고사리 산 66-15,127.685833,35.135
690,4009665,환경부,하동군(읍내리),Hadonggun(Eupnaeri),섬진강,섬진강,경상남도 하동군 하동읍 읍내리 1563,127.740278,35.066667
691,4009670,환경부,하동군(대석교),Hadonggun(Daeseokgyo),섬진강,횡천강,경상남도 하동군 적량면 고절리 1192-3 대석교,127.783611,35.059167
692,4104603,수자원공사,순천시(송전교),Suncheonsi(Songjeongyo),섬진강남해,이사천,전라남도 순천시 승주읍 신성리 송전교,127.381667,35.005
693,4104610,수자원공사,순천시(노동교),Suncheonsi(Nodonggyo),섬진강남해,석흥천,전라남도 순천시 상사면 봉래리 노동교,127.378333,34.953889
694,4104620,수자원공사,순천시(주암조절지댐),Suncheonsi(Juamjojeoljidam),섬진강남해,이사천,전라남도 순천시 상사면 용계리 주암조절지댐,127.419722,34.945556
695,4104625,수자원공사,순천시(주암조절지방수로),Suncheonsi(Juamjojeoljibangsuro),섬진강남해,이사천,전라남도 순천시 상사면 용계리 주암조절지방수로,127.425833,34.945278
696,4104655,수자원공사,순천시(주암조절지조정지댐),Suncheonsi(Juamjojeoljijojeongjidam),섬진강남해,이사천,전라남도 순천시 상사면 용계리 주암조절지조정지댐,127.439167,34.946944
697,4104665,환경부,순천시(노디목교),Suncheonsi(Nodimokgyo),섬진강남해,이사천,전라남도 순천시 상사면 응령리 678 노디목교,127.453333,34.940556
698,4104680,환경부,순천시(동천교),Suncheonsi(Dongcheongyo),섬진강남해,순천동천,전라남도 순천시 풍덕동 630-1,127.502778,34.930278
699,4104685,환경부,순천시(연동교),Suncheonsi(Yeondonggyo),섬진강남해,이사천,전라남도 순천시 교량동 1135-71 연동교,127.4875,34.916667
700,4105630,환경부,광양시(서산교),Gwangyangsi(Seosangyo),섬진강남해,광양서천,전라남도 광양시 광양읍 칠성리 881-2,127.58,34.967778
701,4105640,환경부,광양시(용강교),Gwangyangsi(Yongganggyo),섬진강남해,광양동천,전라남도 광양시 광양읍 용강리 820,127.601944,34.974722
702,4105665,수자원공사,광양시(지원교),Gwangyangsi(Jiwongyo),섬진강남해,수어천,전라남도 광양시 진상면 지원리 신지원교,127.723056,35.015833
703,4105670,수자원공사,광양시(수어천교),Gwangyangsi(Sueocheongyo),섬진강남해,수어천,전라남도 광양시 진월면 진정리 수어천교,127.723889,34.988333
704,5001610,환경부,담양군(담양댐),Damyanggun(Damyangdam),영산강,영산강,전라남도 담양군 용면 도림리 산 139-3 취수탑 도교,127.013889,35.373333
705,5001615,환경부,담양군(금월교),Damyanggun(Geumwolgyo),영산강,영산강,전라남도 담양군 담양읍 학동리 6-4 금월교 하류,127.016667,35.332778
706,5001618,수자원공사,담양군(장천교),Damyanggun(Jangcheongyo),영산강,용천,전라남도 담양군 용면 두장리 장천교,126.99,35.348056
707,5001620,환경부,담양군(덕용교),Damyanggun(Deokyonggyo),영산강,오례천,전라남도 담양군 무정면 봉안리 1039-59 덕용교,127.039167,35.289444
708,5001625,환경부,담양군(삼지교),Damyanggun(Samjigyo),영산강,영산강,전라남도 담양군 수북면 정중리 81-4 삼지교 하류,126.935833,35.270556
709,5001627,환경부,담양군(양지교),Damyanggun(Yangjigyo),영산강,증암천,전라남도 담양군 봉산면 양지리 754-1,126.943611,35.256111
710,5001630,환경부,담양군(광주댐),Damyanggun(Gwangjudam),영산강,증암천,전라남도 담양군 고서면 분향리 산 6-3,126.989444,35.2
711,5001640,환경부,광주광역시(용산교),Gwangju(Yongsangyo),영산강,영산강,광주광역시 북구 용전동 1027-3 용산교 하류,126.888611,35.240556
712,5001645,환경부,광주광역시(첨단대교),Gwangju(Cheomdandaegyo),영산강,영산강,광주광역시 광산구 오룡동 57-3,126.856944,35.2175
713,5001650,환경부,광주광역시(유촌교),Gwangju(Yuchongyo),영산강,광주천,광주광역시 서구 유촌동 30 유촌교,126.856667,35.166944
714,5001655,환경부,광주광역시(풍영정천2교),Gwangju(Pungyeongjeongcheon2gyo),영산강,풍영정천,광주광역시 광산구 월곡동 321-73 풍영정천2교 하류,126.814722,35.171667
715,5001660,환경부,광주광역시(어등대교),Gwangju(Eodeungdaegyo),영산강,영산강,광주광역시 광산구 우산동 505 어등대교 하류,126.823056,35.16
716,5001670,환경부,광주광역시(설월교),Gwangju(Seolwolgyo),영산강,광주천,광주광역시 동구 학동 1003-1 설월교,126.9275,35.129444
717,5001673,환경부,광주광역시(천교),Gwangju(cheongyo),영산강,광주천,광주광역시 서구 양동 441 천교,126.907222,35.151111
718,5001680,환경부,광주광역시(극락교),Gwangju(Geukrakgyo),영산강,영산강,광주광역시 서구 벽진동 564-1 극락교 하류,126.825833,35.135833
719,5002610,환경부,장성군(용동교),Jangseonggun(Yongdonggyo),영산강,북하천,전남 장성군 북하면 성암리 1165-3,126.890833,35.404444
720,5002620,환경부,장성군(장성댐),Jangseonggun(Jangseongdam),영산강,황룡강,전라남도 장성군 장성읍 용강리 2-4 취수탑,126.819444,35.359444
721,5002643,환경부,장성군(금계리),Jangseonggun(Geumgyeri),영산강,개천,전라남도 장성군 서삼면 금계리 566-27,126.776111,35.319444
722,5002650,환경부,장성군(제2황룡교),Jangseonggun(Je2hwangryonggyo),영산강,황룡강,전라남도 장성군 황룡면 월평리 163 (구)제2황룡교,126.77,35.290833
723,5002660,환경부,광주광역시(용진교),Gwangju(Yongjingyo),영산강,황룡강,광주광역시 광산구 임곡동 565-2 용진교,126.746667,35.215278
724,5002670,수자원공사,장성군(죽탄교),Jangseonggun(Juktangyo),영산강,평림천,전라남도 장성군 삼계면 상도리 죽탄교,126.699722,35.2525
725,5002677,환경부,광주광역시(평림교),Gwangju(Pyungrimgyo),영산강,평림천,광주광역시 광산구 오운동 349 평림교,126.69,35.165278
726,5002690,환경부,광주광역시(장록교),Gwangju(Jangrokgyo),영산강,황룡강,광주광역시 광산구 도산동 976-19 장록교 하류,126.785,35.134167
727,5003604,수자원공사,화순군(세청교),Hwasungun(Secheonggyo),영산강,지석천,전라남도 화순군 이양면 오류리 세청교,126.986667,34.890278
728,5003605,환경부,화순군(용두교),Hwasungun(Yongdugyo),영산강,지석천,전라남도 화순군 춘양면 용두리 415-1 용두교,126.982778,34.940278
729,5003610,환경부,화순군(능주교),Hwasungun(Neungjugyo),영산강,지석천,전라남도 화순군 능주면 석고리 154 능주교 하류,126.960278,34.996944
730,5003615,환경부,화순군(주도교),Hwasungun(Judogyo),영산강,화순천,전라남도 화순군 화순읍 서태리 1022-10 주도교 상류,126.9475,35.032778
731,5003620,환경부,화순군(신성교),Hwasungun(Sinseonggyo),영산강,지석천,전라남도 화순군 도곡면 평리 484 신성교 하류,126.896111,35.003611
732,5003640,환경부,나주시(나주댐),Najusi(Najudam),영산강,대초천,전라남도 나주시 다도면 판촌리 산 104-8 취수탑 도교,126.844444,34.963889
733,5003650,환경부,나주시(우산교),Najusi(Usangyo),영산강,대초천,전라남도 나주시 남평읍 우산리 2413-191 우산교,126.8825,34.983333
734,5003680,환경부,나주시(남평교),Najusi(Nampyeonggyo),영산강,지석천,전라남도 나주시 남평읍 남평리 283 (구)남평교,126.845278,35.049444
735,5004620,환경부,광주광역시(승용교),Gwangju(Seungyonggyo),영산강,영산강,광주광역시 광산구 용봉동 251-36 승용교,126.775556,35.0725
736,5004630,환경부,승촌보(하류),Seungchonbo(Haryu),영산강,영산강,광주광역시 남구 승촌동 495-4천,126.759722,35.063333
737,5004650,환경부,나주시(나주대교),Najusi(Najudaegyo),영산강,영산강,전라남도 나주시 삼도동 913 나주대교 상류,126.732222,35.037222
738,5004655,환경부,나주시(동곡리),Najusi(Donggokri),영산강,만봉천,전라남도 나주시 세지면 동곡리 231-1,126.716111,34.9675
739,5004670,환경부,나주시(영산교),Najusi(Yeongsangyo),영산강,영산강,전라남도 나주시 영산동 319 영산교 하류부,126.704722,34.998889
740,5004690,환경부,나주시(회진리),Najusi(hoejinri),영산강,영산강,전라남도 나주시 다시면 회진리 533,126.671111,34.998889
741,5004696,환경부,죽산보,Juksanbo,영산강,영산강,전라남도 나주시 왕곡면 옥곡리 114-28 죽산교,126.635556,34.971944
742,5004698,환경부,죽산보(하류),Juksanbo(Haryu),영산강,영산강,전라남도 나주시 다시면 죽산리 1175-3,126.623333,34.969444
743,5005650,환경부,함평군(나산교),Hampyeonggun(Nasangyo),영산강,고막원천,전라남도 함평군 나산면 삼축리 1332-14 나산교 하류,126.611944,35.111667
744,5005680,환경부,함평군(원고막교),Hampyeonggun(Wongomakgyo),영산강,고막원천,전라남도 함평군 학교면 고막리 산 3 원고막교 상류,126.591111,35.035278
745,5006610,환경부,함평군(동강교),Hampyeonggun(Dongganggyo),영산강,영산강,전라남도 함평군 학교면 곡창리 760-9 동강교 상류,126.545556,34.984167
746,5006617,환경부,함평군(대동저수지),Hampyeonggun(Daedongjeosuji),영산강,함평천,전라남도 함평군 대동면 운교리 대동저수지,126.510556,35.119444
747,5006620,환경부,함평군(영수교),Hampyeonggun(Yeongsugyo),영산강,함평천,전라남도 함평군 함평읍 기각리 943-7 영수교 상류,126.522778,35.066111
748,5006630,환경부,함평군(학야교),Hampyeonggun(Hakyagyo),영산강,함평천,전라남도 함평군 엄다면 학야리 36-3 학야교 하류,126.528333,35.018611
749,5006670,환경부,무안군(몽탄대교),Muangun(Mongtandaegyo),영산강,영산강,전라남도 무안군 몽탄면 몽강리 628-21 몽탄대교 상류,126.521667,34.904167
750,5007640,환경부,영암군(해창교),Yeongamgun(Haechanggyo),영산강,영암천,전라남도 영암군 덕진면 용산리 1055 해창교,126.649722,34.820833
751,5008690,환경부,하구언(내),Hagueon(nae),영산강,영산강,전라남도 영암군 삼호면 나불리 964 삼호대교,126.449167,34.786111
752,5008695,환경부,하구언(외),Hagueon(oe),영산강,영산강,전라남도 영암군 삼호면 나불리 964 하구언,126.449167,34.786111
753,5101620,수자원공사,장흥군(동산교),Jangheunggun(Dongsangyo),탐진강,탐진강,전라남도 장흥군 유치면 봉덕리 동산교,126.890556,34.816389
754,5101631,수자원공사,장흥군(장흥댐),Jangheunggun(Jangheungdam),탐진강,탐진강,전라남도 장흥군 부산면 지천리 장흥댐,126.882778,34.753333
755,5101650,환경부,장흥군(별천교),Jangheunggun(Byeolcheongyo),탐진강,탐진강,전라남도 장흥군 부산면 금자리 1118-16 별천교 하류,126.906111,34.731389
756,5101670,환경부,장흥군(예양교),Jangheunggun(Yeyanggyo),탐진강,탐진강,전라남도 장흥군 장흥읍 예양리 197-1 예양교 하류,126.903056,34.674722
757,5101675,환경부,장흥군(감천교),Jangheunggun(Gamcheongyo),탐진강,금강천,전라남도 장흥군 장흥읍 순지리 144-7 감천교,126.886667,34.662222
758,5101680,수자원공사,강진군(풍동리),Gangjingun(Pungdongri),탐진강,탐진강,전라남도 강진군 군동면 풍동리 1104,126.870278,34.649444
759,5101690,환경부,강진군(석교교),Gangjingun(Seokgyogyo),탐진강,탐진강,전라남도 강진군 군동면 석교리 33-4 석교교 상류,126.816111,34.636389
760,5301660,환경부,고창군(부정교),Gochanggun(Bujeonggyo),영산강서해,주진천,전라북도 고창군 아산면 계산리 695-42 부전교,126.623333,35.4725
761,5301690,환경부,고창군(용선교),Gochanggun(Yongseongyo),영산강서해,주진천,전라북도 고창군 심원면 용기리 502-8,126.595,35.529444
762,5302620,환경부,영광군(반와교),Yeonggwanggun(Banwagyo),영산강서해,와탄천,전라남도 영광군 영광읍 양평리 522-4 반와교,126.507222,35.316389
